DEPTO,NOMDEPTO,CODLOC,NOMLOC,NOMBRE,DIRECCION,x,y
"01",MONTEVIDEO,"01020",MONTEVIDEO,EL TUNEL,Avelino Miranda 2615 esq Av. Italia,576504.046759143,6138419.79159578
"01",MONTEVIDEO,"01020",MONTEVIDEO,EL TUNEL 2,Solano Garcia 2569 esq Victor Soliño,576986.993713313,6135100.77661739
"01",MONTEVIDEO,"01020",MONTEVIDEO,EL TUNEL 3,26 de Marzo 3397 esq. Julio César,578593.967751789,6137036.63161371
"01",MONTEVIDEO,"01020",MONTEVIDEO,EL TUNEL 4,Juan B.Alberdi 6597 esq. Murillo,585569.476436805,6139910.7380464
"01",MONTEVIDEO,"01020",MONTEVIDEO,EL TUNEL 5,18 de Julio 945A esq. Río Branco,573445.095084978,6137077.69056866
"01",MONTEVIDEO,"01020",MONTEVIDEO,EL TUNEL 5,Hipolito Yrigoyen 1599 esq. Av. Gral. Rivera,581411.692259897,6138642.38538397
"01",MONTEVIDEO,"01020",MONTEVIDEO,FARMAHORRO EL TUNEL  ,Avda Agraciada 4061 Bis,571559.969323787,6142316.90894532
"01",MONTEVIDEO,"01020",MONTEVIDEO,EL TUNEL BEBES Y NIÑOS,Avelino Miranda 2605 esq. 8 de Octubre,576466.402028877,6138446.77328096
"01",MONTEVIDEO,"01900",RURAL,EL TUNEL 8,Camino Luis Eduardo Pérez 6651 (Sector Polivalente Nº local C - 017),567448.504857376,6146860.09777282
"01",MONTEVIDEO,"01020",MONTEVIDEO,ELTUNEL 9,18 de Julio 1195 esq. Cuareim,573954.764092241,6137113.25902316
"10",MALDONADO,"10524",PUNTA DEL ESTE,EL TUNEL 10,Avda. Gorlero S/N entre parada 28 y 29,687936.44675989,6129398.26880833
"01",MONTEVIDEO,"01020",MONTEVIDEO,FARMAGLOBAL  4, Av. Brasil 2948,577480.673406188,6136457.8260095
"03",CANELONES,"03831",LAGOMAR,FARMAGLOBAL 11,Av. Giannattasio 21.500,592920.752506252,6144636.32687565
"01",MONTEVIDEO,"01020",MONTEVIDEO,FARMAGLOBAL,Francisco Solano Antuña 2752,577301.461985404,6135672.00993147
"01",MONTEVIDEO,"01020",MONTEVIDEO,FARMAGLOBAL 7,21 de Setiembre 3076,577555.699017305,6135475.38105795
"01",MONTEVIDEO,"01020",MONTEVIDEO,FARMAGLOBAL 2,Jaime Zudáñez,577461.689212509,6135908.70747886
"01",MONTEVIDEO,"01020",MONTEVIDEO,FARMAGLOBAL 5,José Ellauri 868,577334.429652724,6136086.04845207
"01",MONTEVIDEO,"01020",MONTEVIDEO,FARMAGLOBAL 8,Ramón Masini 3379,577840.644792289,6136379.83707749
"01",MONTEVIDEO,"01020",MONTEVIDEO,FARMAGLOBAL 14,Bv. Gral. Artigas 1157,576384.753653907,6136907.91783247
"01",MONTEVIDEO,"01020",MONTEVIDEO,FARMAGLOBAL,Av. Italia 2941,577576.768001565,6138834.97422913
"01",MONTEVIDEO,"01020",MONTEVIDEO,FARMACITY,Av. Italia 3250,578172.545810587,6139058.71708727
"01",MONTEVIDEO,"01020",MONTEVIDEO,FARMACITY,Av. Brasil 3077,577667.941059929,6136237.59194205
"01",MONTEVIDEO,"01020",MONTEVIDEO,FARMACITY,21 de Septiembre 2753,576982.901347073,6135774.68815797
"01",MONTEVIDEO,"01020",MONTEVIDEO,FARMACITY,Av. Luis A. Herrera 1248,578839.632369228,6137210.87676895
"01",MONTEVIDEO,"01020",MONTEVIDEO,FARMAUY,Maldonado esq.Yaro,575278.006287263,6136802.57979899
"01",MONTEVIDEO,"01020",MONTEVIDEO,FARMA & GLAM (ANDES),Soriano 850,573262.576235601,6136844.50844272
"01",MONTEVIDEO,"01020",MONTEVIDEO,FARMA & GLAM (ANDROMEDA),Garcia de Zuniga 2211,576221.20957896,6135679.960624
"01",MONTEVIDEO,"01020",MONTEVIDEO,FARMA & GLAM (GALENA),Arenal Grande 1352,575557.538096269,6137372.57428259
"01",MONTEVIDEO,"01020",MONTEVIDEO,FARMA & GLAM (KENNY),Rondeau 1685,573799.861587856,6137772.95900437
"01",MONTEVIDEO,"01020",MONTEVIDEO,FARMA & GLAM (LOS FAROLES),Durazno 1102,573830.801791198,6136554.19752247
"01",MONTEVIDEO,"01020",MONTEVIDEO,FARMA & GLAM (LA CAJA),Colonia 1870,575239.564776818,6137624.30383789
"08",FLORIDA,"08220",FLORIDA,DUPEST,Independencia 651,572345.638690932,6226661.40539135
"08",FLORIDA,"08220",FLORIDA,ENY,José E. Rodó 3654 e/ M.Oribe,572062.221449233,6226361.16401085
"08",FLORIDA,"08421",SARANDI GRANDE,ALQUIMIA,Av. Artigas 829,562118.802211039,6268230.41523956
"08",FLORIDA,"08421",SARANDI GRANDE,PASTEUR - SARANDI GRANDE,Av. Artigas 867,562204.009230322,6268187.76343797
"08",FLORIDA,"08790",CERRO CHATO,CERRO CHATO,Julio A. Goday s/n,674195.858932177,6335098.33765739
"08",FLORIDA,"08823",MENDOZA,NATIVA,Ruta 5 Km. 74.500,572196.508825846,6206479.92215794
"08",FLORIDA,"08621",CARDAL,NUEVA FARMACIA CARDAL,Av. Artigas s/n e/ Uruguay,555887.446299927,6205451.58295596
"02",ARTIGAS,"02522",TOMAS GOMENSORO,ALFA,Rincón 353,457961.052728045,6633414.5340271
"02",ARTIGAS,"02522",TOMAS GOMENSORO,PLAZA,19 de Abril 205,458181.434862306,6633499.97104612
"02",ARTIGAS,"02521",BELLA UNION,ARTIGAS,Av. Artigas 698,441878.805591333,6652086.76197686
"02",ARTIGAS,"02521",BELLA UNION,FARMACENTRO,Av. Artigas 901,442097.749507484,6652175.09778682
"02",ARTIGAS,"02521",BELLA UNION,SANTA CECILIA CENTRO,Av. Artigas 642,441820.770323933,6652068.41729588
"02",ARTIGAS,"02521",BELLA UNION,SANTA CECILIA ESTE,Av. Artigas 1609,442798.990850498,6652379.52256233
"08",FLORIDA,"08722",CAPILLA DEL SAUCE,RIAL,Av. Centenario s/n,627272.901164026,6295877.04912051
"08",FLORIDA,"08521",CASUPA,TEJERA HNAS.,Manuel Francisco Artigas s/n,624285.280411323,6225898.79414966
"08",FLORIDA,"08624",25 DE MAYO,25 DE MAYO - FLORIDA,19 de Junio 1195 esq. Gral F. Rivera,560609.350316288,6215780.23711918
"09",LAVALLEJA,"09521",JOSE BATLLE Y ORDO�EZ,BOASSO,Rivera s/n,671978.884319642,6294974.34120172
"09",LAVALLEJA,"09220",MINAS,FARINA,José E. Rodó y W. Beltrán,662259.500462157,6194647.82476714
"09",LAVALLEJA,"09220",MINAS,GORTARI,Domingo Pérez 501 e/ T.y Tres,661992.484618251,6194658.72777313
"09",LAVALLEJA,"09220",MINAS,IDAMAR,Varela s/n e/ Carlos Ma. Fosalba,663035.469784968,6195575.66600687
"09",LAVALLEJA,"09220",MINAS,ORIENTAL,Domingo Pérez 479,661948.785318028,6194610.32663198
"09",LAVALLEJA,"09220",MINAS,SERRANA,Juan Farina 445,661522.460029626,6194862.0535021
"09",LAVALLEJA,"09622",SOLIS DE MATAOJO,GOMEZ,Av. Eduardo Fabini 775,640605.884020579,6170228.17637516
"09",LAVALLEJA,"09621",MARISCALA,IRISARRI,Av. Artigas s/n,705243.958178697,6231015.85169423
"09",LAVALLEJA,"09522",JOSE PEDRO VARELA,LA FAMILIA,Podestá 715,728988.140472683,6295426.9044762
"09",LAVALLEJA,"09522",JOSE PEDRO VARELA,ZAPICAN,Lavalleja 415,729171.901084823,6295350.00253392
"01",MONTEVIDEO,"01020",MONTEVIDEO,FARMA & GLAM (LUJAN),18 de Julio 2176,576000.032632675,6137839.12252986
"01",MONTEVIDEO,"01020",MONTEVIDEO,FARMA & GLAM (EROSA),Jose E. Rodo 2101,575717.788372944,6137383.94891405
"01",MONTEVIDEO,"01020",MONTEVIDEO,REX,Av. Rivera 3648,579064.136278085,6137703.4169259
"01",MONTEVIDEO,"01020",MONTEVIDEO,SAN PABLO,Av. San Martin 2443,574342.44433984,6139819.5518271
"01",MONTEVIDEO,"01020",MONTEVIDEO,DE MARCO,Av. Luis Alberto de Herrera 2957,576867.94662873,6140541.30016501
"10",MALDONADO,"10321",SAN CARLOS,ALVARIZA,Alvariza 831,690241.057058973,6148257.91026675
"10",MALDONADO,"10321",SAN CARLOS,SOLER,18 de Julio 851,690601.921727365,6147947.81003843
"10",MALDONADO,"10321",SAN CARLOS,CEDEMCAR,Ejido 741,690900.896589569,6148540.15638586
"10",MALDONADO,"10973",BALNEARIO BUENOS AIRES,BALNEARIO BUENOS AIRES,Calle 26 esquina 49,701479.500610234,6137056.51692747
"10",MALDONADO,"10320",MALDONADO,DIADRI,Camino Lussich y Firenze,685649.781997292,6136429.67265845
"10",MALDONADO,"10320",MALDONADO,DEL MIRADOR,Cno. de los Gauchos e/ Chiossi,687889.223107489,6136110.02295736
"10",MALDONADO,"10320",MALDONADO,IPORA,Cont. 25 de Agosto y Artigas,686003.163952607,6135109.65990694
"10",MALDONADO,"10320",MALDONADO,SAN ROQUE 54,Sarandí 555 e/ Antonio Ledesma,686604.335782347,6134647.49939163
"10",MALDONADO,"10320",MALDONADO,LUSSICH,Cno. Lussich y Carolina Saboya,685822.868205693,6136158.22943384
"10",MALDONADO,"10320",MALDONADO,LUZ,Calle 7 esq. 13,688680.955240482,6136388.2797075
"10",MALDONADO,"10320",MALDONADO,MALDONADO,Sta. Teresa y Ventura Alegre,686992.156780699,6135408.75956105
"10",MALDONADO,"10320",MALDONADO,NIEVE,Cno de los Gauchos y Oribe,687865.4231349,6135801.79061279
"10",MALDONADO,"10320",MALDONADO,RUMBO AL 3000,Dr. Román Bergalli 445,687225.357361904,6135597.37738485
"10",MALDONADO,"10320",MALDONADO,SUEÑOS,Calle 1 y 10 - Urb. Biarritz,687885.7307375,6136836.21189385
"10",MALDONADO,"10320",MALDONADO,TAMITA,Florida y Ramón Guerra ,686704.475576683,6135228.95034621
"10",MALDONADO,"10830",PINARES - LAS DELICIAS,SAN ROQUE,Sarandí 555,686192.26057451,6134553.31261938
"10",MALDONADO,"10524",PUNTA DEL ESTE,COLONIAL,Pedragosa Sierra y Bvar.Artigas,688451.545432929,6131058.09019875
"10",MALDONADO,"10524",PUNTA DEL ESTE,LA PASTORA,Av. Francia y Ansina,688434.133758467,6130169.07015236
"10",MALDONADO,"10830",PINARES - LAS DELICIAS,LAS DELICIAS,Av. España P. 27 A (límite Maldonado),685600.909198655,6134558.49293628
"10",MALDONADO,"10524",PUNTA DEL ESTE,SAN ROQUE 90 MENAFRA,Calle 28 esq. 20,687828.427222062,6129448.2985277
"10",MALDONADO,"10524",PUNTA DEL ESTE,SAN RAFAEL,Brighton y Nordeney (La Barra),690076.221213647,6131749.88110421
"10",MALDONADO,"10524",PUNTA DEL ESTE,SAN ROQUE 15 - PUNTA SHOPPING,Av. Roosevelt y Los Alpes,688686.092053392,6131557.74158202
"10",MALDONADO,"10524",PUNTA DEL ESTE,FONT,"Avenida Williman y Parada 1, Edificio Vanguardia",688097.957090584,6130007.90261097
"10",MALDONADO,"10523",PIRIAPOLIS,FUTURA,Gral. Sanabria 936,657623.054181447,6140309.3815945
"10",MALDONADO,"10521",AIGUA,MARITAN,Margarita Muniz 801,706009.709864961,6212953.12144721
"11",PAYSANDU,"11959",TERMAS DE GUAVIYU,TERMAL GUAVIYU,"Termas de Guaviyú, ruta 3, km431",416134.189311658,6476745.64828226
"01",MONTEVIDEO,"01020",MONTEVIDEO,ANTARTIDA,Colonia 1475 BIS,574493.796529008,6137282.79518008
"01",MONTEVIDEO,"01020",MONTEVIDEO,BARCELONA,Bulevar España 2319,576252.164885854,6136609.87552748
"01",MONTEVIDEO,"01020",MONTEVIDEO,CACERES,Bulevar España 2941,577657.946360409,6136076.70454099
"01",MONTEVIDEO,"01020",MONTEVIDEO,CAMAÑO,Brito del Pino 1314,576940.750719353,6137199.36734707
"01",MONTEVIDEO,"01020",MONTEVIDEO,CONSTITUCION SUR,Camino Maldonado 5516,579944.983878316,6143707.14717504
"01",MONTEVIDEO,"01020",MONTEVIDEO,CORAL,Bvar. José Batlle y Ordóñez 1375,579507.63583255,6138447.88464567
"01",MONTEVIDEO,"01020",MONTEVIDEO,PASO DE LA ARENA,Av. Luis Batlle Berres 6605,566466.752155426,6144880.37632238
"01",MONTEVIDEO,"01020",MONTEVIDEO,POPULAR,Fernández Crespo 1991,574769.987961314,6138187.10046877
"01",MONTEVIDEO,"01020",MONTEVIDEO,PUNTA FARMA,María Espínola 1614,583679.834341964,6138951.40791344
"01",MONTEVIDEO,"01020",MONTEVIDEO,SILLEDA,General Flores 3401,575770.256974869,6141560.39304398
"01",MONTEVIDEO,"01020",MONTEVIDEO,TAPIE,25 de mayo 315,572246.891751352,6136994.39990376
"02",ARTIGAS,"02220",ARTIGAS,SAGA,Manuel Oribe 476,551371.377109083,6636266.21716627
"03",CANELONES,"03525",PASO CARRASCO,LUNA,Garibaldi 21,587416.041535294,6142773.80079965
"04",CERRO LARGO,"04220",MELO,FARMACENTRO,Herrera 650,766317.474835786,6415069.24482465
"04",CERRO LARGO,"04220",MELO,CENTRAL MEDIFAR,,766375.05361899,6414767.47746969
"15",SALTO,"15120",SALTO,DOS NACIONES,Enrique Amorin 1201 esquina A. Invernizzi,408916.258043618,6528183.57324864
"14",ROCHA,"14421",CASTILLOS,CASTILLOS,Olivera 1230,789285.565138402,6211268.6447005
"14",ROCHA,"14421",CASTILLOS,DOS VIAS, 19 de Abril 1462,789705.411357546,6211411.45036145
"14",ROCHA,"14421",CASTILLOS,FERRER,Acosta 1229,789408.74519183,6211317.18508818
"14",ROCHA,"14421",CASTILLOS,GARAT,19 de Abril 1350,789478.217040062,6211366.50022025
"14",ROCHA,"14521",CHUY,CHIQUITIN,Av. Brasil 685,828652.346365249,6266245.66795744
"14",ROCHA,"14521",CHUY,CHIQUITIN II,Av. Brasil 359,828951.319112301,6266219.00582774
"14",ROCHA,"14521",CHUY,CRISTAL,Av. Gral Artigas 128,828581.904917007,6266208.15828146
"14",ROCHA,"14962",PUNTA DEL DIABLO,DE LA ALDEA,Av. Central s/n,819392.763164787,6227438.82317312
"14",ROCHA,"14722",LA PALOMA,DEL NAVIO,Av. del Navio y Lira ,759805.961121201,6160830.75742868
"14",ROCHA,"14722",LA PALOMA,SOL Y LUA,Paloma s/n entre Aries y Solari,760374.988973628,6161149.42780534
"14",ROCHA,"14422",LASCANO,HUMANITARIA,25 de Agosto 1192 loc.3,758895.904525599,6270423.70483692
"14",ROCHA,"14422",LASCANO,MAFELUGUS ,Larrañaga 1251,759038.858175465,6270675.49287585
"14",ROCHA,"14422",LASCANO,SAN MATEO,Dr. Fonseca 1327,758801.95201159,6270252.17878229
"14",ROCHA,"14320",ROCHA,JAZMIN,Luis A. de Herrera s/n,745689.857125942,6180278.49750609
"14",ROCHA,"14320",ROCHA,URUGUAY - ROCHA,18 de Julio 129,744774.350279376,6181342.84821296
"14",ROCHA,"14320",ROCHA,SILVA,Lavalleja 119 esquina 18 de julio,744933.083649434,6181171.36998987
"14",ROCHA,"14942",LA PEDRERA,LA PEDRERA,Pitanga c/ Avda. Principal,763455.1405184,6168531.66180345
"14",ROCHA,"14622",VELAZQUEZ,DEL PUEBLO - VELAZQUEZ,Hilario Gómez y Mario Sobrero,750976.816808518,6230522.28750161
"16",SAN JOSE,"16220",SAN JOSE DE MAYO,18 SAN JOSE,A. de Figueroa 600 e/ 18 de Julio,525932.023542683,6200117.73209313
"16",SAN JOSE,"16220",SAN JOSE DE MAYO,4 DE OCTUBRE,Luis A.de Herrera 456 e/ Artigas,526353.337393848,6199643.72916301
"16",SAN JOSE,"16220",SAN JOSE DE MAYO,ABE BELLINI,18 de Julio 582 e/ 25 de Mayo,526434.363763323,6200235.57718101
"10",MALDONADO,"10523",PIRIAPOLIS,LOS ANGELES,Artigas y Misiones,657163.232707655,6141445.0261562
"10",MALDONADO,"10523",PIRIAPOLIS,MACHADO,Rambla de los Argentinos 1192,657528.22149852,6140376.79073287
"10",MALDONADO,"10945",LAS FLORES,LA CABINA,Av. Los Laureles s/n,652579.978579729,6146413.95564499
"10",MALDONADO,"10522",PAN DE AZUCAR,OLAZA,Felix de Lizarza 749,662403.997854773,6150392.35206008
"10",MALDONADO,"10947",MANANTIALES,BIKINI,Ruta 10 Km 164,698530.679934126,6135319.07229486
"10",MALDONADO,"10956",PUNTA BALLENA,PORTEZUELO,Ruta Interbalnearia Km. 117.500,677548.518759793,6138783.32649138
"11",PAYSANDU,"11120",PAYSANDU,DOROTTE NORTE,Dr. Roldán esq. Andresito,398259.146869675,6425577.4337005
"11",PAYSANDU,"11120",PAYSANDU,FERROCARRIL,Cerrito 1305 e/ P.Larrañaga,398714.612395388,6424557.17952499
"11",PAYSANDU,"11120",PAYSANDU,HEINZEN,18 de Julio 878,397649.896111539,6423953.37035931
"11",PAYSANDU,"11120",PAYSANDU,INGLESA II,Leandro Gómez 1013,397759.407917204,6423829.02020552
"16",SAN JOSE,"16220",SAN JOSE DE MAYO,SENAQUE ,Ciganda y Oribe (Plaza Independencia),526865.909299995,6200083.79196381
"16",SAN JOSE,"16220",SAN JOSE DE MAYO,TERMINAL,Artigas 779 e/ Ansina,526135.134029171,6200629.00580128
"16",SAN JOSE,"16421",LIBERTAD,BIDEGAIN,25 de Agosto 980,534924.657488923,6167467.65305243
"16",SAN JOSE,"16421",LIBERTAD,PRINCIPAL,25 de Agosto 1105 bis,534744.568835558,6167245.3248316
"16",SAN JOSE,"16421",LIBERTAD,LIBERFARMA,Rivas Costas 1071,534727.205693352,6167113.80922383
"16",SAN JOSE,"16621",RODRIGUEZ,BRICCOLA,Santiago Rodríguez 915,542337.957064786,6195393.73203342
"16",SAN JOSE,"16824",PLAYA PASCUAL,DANJOVI,Av. Río de la Plata Parada 5 y 1/2,550238.73617816,6155343.75871563
"16",SAN JOSE,"16929",ECILDA PAULLIER,DARIEL,Av. Artigas s/n,495805.418072803,6198191.36602189
"16",SAN JOSE,"16929",ECILDA PAULLIER,MARINE,César Rodríguez Bonavita,495724.644338271,6198276.47359415
"16",SAN JOSE,"16521",DELTA DEL TIGRE Y VILLAS,DEL 26,Ruta 1 Km 26.600 M. 192 S.3,555209.089216976,6152882.11742353
"16",SAN JOSE,"16826",RAFAEL PERAZA,EL MAGO,Ruta 1 Km. 72 - Artigas 519,518607.912902144,6179617.91866418
"16",SAN JOSE,"16932",KIYU-ORDEIG,KIYU,Luz Marina s/n,523820.211594314,6160398.74663737
"16",SAN JOSE,"16826",RAFAEL PERAZA,RAPETTI,San José 649,518450.540746344,6179592.07831691
"17",SORIANO,"17798",AGRACIADA,AGRACIADA,Treinta y Tres y 19 de Abril,382715.646745624,6258275.54461998
"17",SORIANO,"17321",DOLORES,ASENCIO,Av. Asencio 1549,386866.681053592,6289396.71413303
"17",SORIANO,"17321",DOLORES,DOLORES,Asencio 2199 e/ Alberto Saavedra,387546.871001588,6288248.80001608
"17",SORIANO,"17321",DOLORES,VALENTINA,Puig 1848,387265.281720997,6288921.7151248
"17",SORIANO,"17220",MERCEDES,BELLINI,Fregeiro 738,404276.407631532,6319652.2099532
"17",SORIANO,"17220",MERCEDES,FERNANDEZ GENOLET ,F.D.Roosevelt 706 e/ Colón,404036.164662792,6320557.5759581
"17",SORIANO,"17220",MERCEDES,MONTAÑO,Lavalleja 402 e/ Florencio Sánchez,404813.020963715,6320508.05917534
"17",SORIANO,"17321",DOLORES,FARMASHOP 112 GO-BA,Av. Grito de Asencio 1751,387094.236619296,6289026.06028702
"17",SORIANO,"17220",MERCEDES,SAN ROQUE 32,Colón 278 e/ Careaga y Roosevelt,403992.757431376,6320607.90922268
"17",SORIANO,"17621",JOSE ENRIQUE RODO,DRABBLE,José Enrique Rodó,450657.951100609,6271141.05360796
"17",SORIANO,"17621",JOSE ENRIQUE RODO,ESCANDA,Ruta 2 Km. 209.500,450396.201519728,6271266.20417198
"17",SORIANO,"17622",PALMITAS,POLY,,425365.172212411,6291919.07401974
"17",SORIANO,"17823",RISSO,RISSO,Calle 7 esquina 8,446994.651277125,6279322.22363741
"17",SORIANO,"17521",CARDONA,SORIA,Bvar. Cardona 1379 e/ Barboza,465885.560906438,6251842.88168869
"17",SORIANO,"17622",PALMITAS,ZAFIRO,Bvar Rodó e/ Zorrilla de San Martín,425691.559931108,6292152.9303056
"17",SORIANO,"17521",CARDONA,SINERGIA,Joaquin Suarez y Barboza,465894.452249878,6252198.21583393
"18",TACUAREMBO,"18321",PASO DE LOS TOROS,BENGOECHEA - PASO DE LOS TOROS,Leandro Gómez 521,545889.0137423,6369410.93241362
"18",TACUAREMBO,"18321",PASO DE LOS TOROS,BERO,Bvar. Artigas 358,546219.224505428,6369332.29920169
"18",TACUAREMBO,"18321",PASO DE LOS TOROS,DEMILTON,Angela B. de López 525,544914.578018135,6369897.32481697
"18",TACUAREMBO,"18521",SAN GREGORIO DE POLANCO,CINA CINA,Yamandú Gamba 94,609213.541153086,6390476.9723848
"18",TACUAREMBO,"18521",SAN GREGORIO DE POLANCO,ESPONDA,Gral Artigas 163,609378.540389516,6390824.81680592
"18",TACUAREMBO,"18828",LAS TOSCAS,CLAVIJO,Ruta 26 - Las Toscas,687531.101857259,6437517.18632249
"18",TACUAREMBO,"18828",LAS TOSCAS,RUTA 26,Ruta 26 Km. 348,687683.019773998,6437894.70243699
"18",TACUAREMBO,"18220",TACUAREMBO,BRISAN,María Olimpia y 18 de Julio ,596157.007283534,6490405.21182275
"18",TACUAREMBO,"18220",TACUAREMBO,DEL PARQUE,18 Julio 126,596895.238498148,6491181.70991196
"18",TACUAREMBO,"18220",TACUAREMBO,DEL PUEBLO - TACUAREMBO,25 de Mayo 187,596671.943252093,6491116.62912944
"18",TACUAREMBO,"18220",TACUAREMBO,HIARDIE,Pablo Rios 149,597357.446900108,6489503.25626086
"18",TACUAREMBO,"18220",TACUAREMBO,LA 16,Catalogne 323,596333.153779146,6490102.59795978
"18",TACUAREMBO,"18220",TACUAREMBO,LICANDRO,César Ortiz y Ayala 151 e/ Dr.Ferreira,596083.982827817,6490747.69054696
"18",TACUAREMBO,"18220",TACUAREMBO,NUEVA - TACUAREMBO,18 de Julio 275 e/ 25 de Agosto,596485.531036644,6490784.42474707
"18",TACUAREMBO,"18220",TACUAREMBO,POPULAR,25 de Mayo 267,596427.821375211,6490865.39741499
"18",TACUAREMBO,"18220",TACUAREMBO,RINIHUE,Ituzaingó 226 e/ 18 de Julio,596638.517321312,6490907.74476568
"18",TACUAREMBO,"18220",TACUAREMBO,SANDU,25 de Mayo 250,596493.520991753,6490905.26220594
"18",TACUAREMBO,"18220",TACUAREMBO,SANTA CRUZ,25 de Mayo 457 bis,595907.983358364,6490313.48544543
"18",TACUAREMBO,"18722",ANSINA,LA RUTA,Villa Ansina,645372.731155941,6471947.47591072
"19",TREINTA Y TRES,"19220",TREINTA Y TRES,ESPAÑA,José E.Rodó 1452 esq. L.Macedo,744319.550890575,6320154.85106163
"19",TREINTA Y TRES,"19220",TREINTA Y TRES,OLIMAR I,Pablo Zufriategui 449,743914.056589382,6319961.4694623
"19",TREINTA Y TRES,"19220",TREINTA Y TRES,SANFER I,Juan A. Lavalleja 1265,743450.67729332,6320594.60134142
"19",TREINTA Y TRES,"19521",SANTA CLARA DE OLIMAR,JAQUE MATE,Rúben Artigas s/n,692019.600817493,6355318.54825915
"19",TREINTA Y TRES,"19790",CERRO CHATO,LUDOMAR (EX HOLINA),Av. Centenario s/n,674429.478619048,6335670.79748542
"19",TREINTA Y TRES,"19522",VERGARA,VERGARA,Marcelo Barreto 1155,786262.86620729,6351429.39242746
"18",TACUAREMBO,"18220",TACUAREMBO,SAN ROQUE 53,25 de mayo 321,596285.967503523,6490719.98656236
"18",TACUAREMBO,"18220",TACUAREMBO,SAN ROQUE 50,25 de Mayo 208,596598.380578206,6491017.69148009
"17",SORIANO,"17220",MERCEDES,SAN ROQUE 23 - MERCEDES SHOPPING,Don Bosco casi Artigas (Shopping),404254.855582493,6319697.40511696
"18",TACUAREMBO,"18220",TACUAREMBO,FARMASHOP 41,25 de Mayo 293,596353.561703223,6490787.22731476
"03",CANELONES,"03828",EL PINAR,ATENEA 6,,599862.637565489,6148272.8319582
"03",CANELONES,"03730",SAN ANTONIO,ACOSTA,Durante y Montevideo s/n,584371.774215203,6187268.75614607
"03",CANELONES,"03525",PASO CARRASCO,AEROPUERTO,Av. Del Lago 2 y Carrá,586634.673130798,6141925.07351552
"03",CANELONES,"03525",PASO CARRASCO,LUNA,Garibaldi 21,587500.842131097,6142671.8551816
"03",CANELONES,"03526",SANTA ROSA,AL MAR,Av. Tomás Berreta s/n,588424.062143109,6182235.77685117
"03",CANELONES,"03526",SANTA ROSA,SANTA ROSA,Av. Tomás Berreta ,588213.367930065,6182090.63551211
"03",CANELONES,"03322",PANDO,AREVALO I,Treinta y Tres 1055,595362.539625559,6157337.53007517
"03",CANELONES,"03322",PANDO,AREVALO III,Francisco Menezes 1057,595482.029877308,6157549.4121522
"03",CANELONES,"03322",PANDO,AREVALO II,25 de Agosto 928,595478.75498594,6157820.09441173
"03",CANELONES,"03322",PANDO,SAN ROQUE BOSCA,Wilson Ferreira 1047 ,595141.081333112,6157574.14779571
"03",CANELONES,"03322",PANDO,FARMASUR,Piovene 1031,595208.975976929,6157671.36773375
"03",CANELONES,"03421",PROGRESO,ARRECHEA,Av. Artigas y Palmar,571752.767299439,6163469.12932171
"03",CANELONES,"03953",LOMAS DE SOLYMAR,ATENEA 1,Giannattasio Km 27200,597727.082064643,6147770.11238331
"03",CANELONES,"03953",LOMAS DE SOLYMAR,ATENEA 2,,598106.121541679,6148027.09081843
"03",CANELONES,"03939",EL BOSQUE,ATENEA 5,,593523.693488403,6145022.10420074
"03",CANELONES,"03633",SAN JOSE DE CARRASCO,ATENEA 3,,591730.378564485,6144228.78224017
"03",CANELONES,"03727",PARQUE CARRASCO,PIGALLE - DE LA COSTA,Calcagno M.40 S.8,591456.283441137,6143117.62654956
"03",CANELONES,"03633",SAN JOSE DE CARRASCO,SAN ROQUE 03 - COSTA URBANA,Av. Giannattasio Km. 21,592001.391103697,6144153.62973366
"03",CANELONES,"03835",SHANGRILA,ATENEA 4,,592260.550674121,6142658.92213388
"03",CANELONES,"03221",LAS PIEDRAS,AVENIDA,Gral. Flores 685 e/ Cabrera y Garibaldi,571496.285796394,6156832.76531888
"03",CANELONES,"03521",BARROS BLANCOS,BARROS BLANCOS,Ruta 8 Km.25,590533.519432225,6153286.77981174
"03",CANELONES,"03521",BARROS BLANCOS,YALALE I,,591710.858103474,6154138.0026823
"03",CANELONES,"03621",ATLANTIDA,FARMACITY,Blvd Artigas esquina 22,613358.315308411,6151586.24837629
"15",SALTO,"15120",SALTO,ALBISU,Uruguay 554,407898.953005601,6527071.7286625
"15",SALTO,"15120",SALTO,CALERO,Uruguay 1099,408600.124077875,6527013.67775609
"15",SALTO,"15120",SALTO,CHIAZZARO,Uruguay 666,408048.492078257,6527053.81410902
"15",SALTO,"15120",SALTO,SAN ROQUE 33,Uruguay 839,408274.280306223,6527050.64848543
"15",SALTO,"15120",SALTO,VANT´HOFF,Av. Uruguay 1799,409492.371346356,6526916.88219515
"15",SALTO,"15120",SALTO,SAN ROQUE 19,B. y Ordoñez 2265 loc.117 (Shopping),410193.953202232,6527405.80527647
"15",SALTO,"15120",SALTO,NUEVA REPUBLICA,Av. Solari 1702,407773.290556748,6525148.71929851
"15",SALTO,"15120",SALTO,SAN ROQUE 46,Dr. Fco. Soca 220,408394.949775534,6527303.29002987
"15",SALTO,"15120",SALTO,SAN ROQUE 47,Grito de Asencio 1499,408340.547568757,6528649.69093352
"03",CANELONES,"03621",ATLANTIDA,TIENDA INGLESA,,612800.361262231,6152015.27125434
"11",PAYSANDU,"11120",PAYSANDU,SAN ROQUE 08 SHOPPING,Bvard. Artigas 770 Shopping loc. 001,399239.561025675,6423422.29007609
"13",RIVERA,"13220",RIVERA,SAN ROQUE 40,Sarandí 665,639424.036492647,6580364.27176396
"03",CANELONES,"03953",LOMAS DE SOLYMAR,SAN GIOVANNI,Tuyutí M.522 S.18,598094.233711218,6146869.8305781
"03",CANELONES,"03422",SAN RAMON,SAN RAMON,Av. José B. y Ordoñez 1215,596009.939152258,6205691.09376548
"03",CANELONES,"03722",BARRA DE CARRASCO,SAN ROQUE 18 - GEANT,Av. La Playa y Giannattasio,589211.170534148,6141426.96939296
"03",CANELONES,"03731",AEROPUERTO INTERNACIONAL DE CARRASCO,SAN ROQUE 24 - AEROPUERTO DE CARRASCO,Aeropuerto de Carrasco - Ruta 101 km 19.950,589955.070500297,6144615.760153
"03",CANELONES,"03527",SAUCE,SAUCE,Carmelo Renée González 2132,585651.623598285,6165316.45415065
"03",CANELONES,"03621",ATLANTIDA,SU FARMACIA,Calle 11 y 26 Padrón 126 M.180,613014.611873796,6151549.30632085
"03",CANELONES,"03621",ATLANTIDA,FARMASHOP 94,Calle 11 Esq. Ciudad de Montevideo,613332.962482656,6151338.04972509
"03",CANELONES,"03622",ESTACION ATLANTIDA,ESTACION ATLANTIDA,Calle El Ibirapitá s/n entre Ruta 11 y El Canelón,613166.844603058,6154808.66517337
"03",CANELONES,"03625",EMPALME OLMOS,SUDRIERS,Luis A. de Herrera s/n,600939.414895255,6160295.19892135
"03",CANELONES,"03727",PARQUE CARRASCO,TORRE 18,Giannattasio Km. 18,590394.354506152,6142414.61465893
"03",CANELONES,"03831",LAGOMAR,YALALE VI,Giannattasio Km 21.000 M.121 S.18,592471.588289447,6144354.01192427
"03",CANELONES,"03529",VILLA CRESPO Y SAN ANDRES,GALET,Ruta 6 Km 23.100,582952.746718654,6155823.09025142
"03",CANELONES,"03900",RURAL,TUNDISI COUNTRY,Camino de los Horneros Km. 3,593616.716782361,6149591.07653564
"03",CANELONES,"03946",JAUREGUIBERRY,JAUREGUIBERRY,Calle 10 (Av. Artigas) esq. Calle 3 (Apereá),646510.826414388,6149585.74735359
"03",CANELONES,"03221",LAS PIEDRAS,SAN ROQUE,Bvard. Bicentenario 318,572943.865891283,6157120.90858114
"09",LAVALLEJA,"09220",MINAS,SAN ROQUE 56,"Luis Alberto de Herrera 950, Minas - Lavalleja.",662038.653813518,6195551.70537503
"01",MONTEVIDEO,"01020",MONTEVIDEO,PIGALLE MAYO,Andes 1397 esq. Colonia,573238.925015295,6137141.77996749
"01",MONTEVIDEO,"01020",MONTEVIDEO,PIGALLE PALERMO,Dr. Carlos M. Morales 946 esq. Av. Gonzalo Ramírez,574607.424708324,6136332.30084809
"01",MONTEVIDEO,"01020",MONTEVIDEO,PIGALLE PONCE,Av. Gral. Rivera 2475 esq. Av. Luis P. Ponce,576578.254948685,6137433.49198368
"01",MONTEVIDEO,"01020",MONTEVIDEO,PIGALLE TRES CRUCES,E. Victor Haedo 2356 esq. Dr. Mario Cassinoni,576219.736494227,6138225.26794602
"01",MONTEVIDEO,"01020",MONTEVIDEO,SAN ROQUE 12 - TRES CRUCES SHOPPING,"Bvar. Artigas 1825, local 48",576213.946182909,6138424.7726032
"10",MALDONADO,"10524",PUNTA DEL ESTE,PIGALLE PUNTA DEL ESTE,Av. Juan Gorlero y Calle 19,687503.923465839,6128951.10911982
"01",MONTEVIDEO,"01020",MONTEVIDEO,SAN ROQUE 01 - CORDON,18 de julio 1551,574693.242300449,6137275.12519613
"01",MONTEVIDEO,"01020",MONTEVIDEO,SAN ROQUE CENTRO,18 de Julio 1078 esq. Paraguay,573732.332033945,6137069.10049097
"01",MONTEVIDEO,"01020",MONTEVIDEO,SAN ROQUE 04 - YI,18 de Julio 1252 esq. Yi,574092.02110226,6137097.49153048
"01",MONTEVIDEO,"01020",MONTEVIDEO,FARMASHOP 56,Fco. Joaquin Muñoz 2951,577652.339659529,6136964.22660772
"01",MONTEVIDEO,"01020",MONTEVIDEO,FARMASHOP 8,Manuel Vicente Pagola 3205,577997.26024527,6136832.36915915
"01",MONTEVIDEO,"01020",MONTEVIDEO,FARMASHOP 40,Gabriel Pereira 3209,577906.188073181,6136620.34152926
"01",MONTEVIDEO,"01020",MONTEVIDEO,FARMASHOP 12,Juan Benito Blanco 1098,577925.426100426,6136385.3426149
"01",MONTEVIDEO,"01020",MONTEVIDEO,FARMASHOP 57,Av. Gral Rivera 3500,578692.175548314,6137552.46384451
"01",MONTEVIDEO,"01020",MONTEVIDEO,FARMASHOP 25,Av. Gral Rivera 4241,580215.461459583,6138149.25271816
"01",MONTEVIDEO,"01020",MONTEVIDEO,FARMASHOP 20,Av. Italia 2490,576604.716696443,6138415.84399541
"01",MONTEVIDEO,"01020",MONTEVIDEO,FARMASHOP 47,Av. Italia 3428,578639.896603365,6139056.90087388
"19",TREINTA Y TRES,"19220",TREINTA Y TRES,FAMASHOP 66,Manuel Melendez 1135,743753.204773754,6320162.38504052
"02",ARTIGAS,"02220",ARTIGAS,MAYRA,Garzón y Treinta y Tres,550982.976238003,6636432.31872116
"02",ARTIGAS,"02220",ARTIGAS,POLLINI,Pte. Berreta 400 e/ Lavalleja,551318.850977541,6636525.38234327
"02",ARTIGAS,"02220",ARTIGAS,POPULAR,Garzón 300 e/ Rivera,551302.979193707,6636817.7904651
"02",ARTIGAS,"02621",BALTASAR BRUM,SAN PIO,José Batlle y Ordoñez esq. 25 de Agosto,468569.071929827,6601230.93822836
"04",CERRO LARGO,"04522",RIO BRANCO,FLEMING I,Virrey Arredondo 980,839698.246764181,6388266.4945344
"04",CERRO LARGO,"04220",MELO,SAN ROQUE 49,Justino Muniz 768,766334.049457222,6415212.7230486
"04",CERRO LARGO,"04220",MELO,SAN ROQUE - PRACTIFARMA 48,Villanueva Saravia 777,766644.962212003,6415698.90219995
"04",CERRO LARGO,"04621",TUPAMBAE,SANTA VERONA,Cerro Largo s/n esquina Avenida Brasil,709450.07418056,6364679.44045279
"04",CERRO LARGO,"04821",ACEGUA,SANTA HIGINIA,Av.José G. Artigas 730,768115.439610604,6470635.8831125
"05",COLONIA,"05422",ROSARIO,ANTARES,Sarandí y Rivera,467538.548210403,6203017.80305621
"05",COLONIA,"05423",NUEVA PALMIRA,ARRIETA,Gral. Artigas 928,369533.981242102,6251199.28028911
"05",COLONIA,"05521",OMBUES DE LAVALLE,ARTIGAS - OMBUES DE LAVALLE,Zorrilla de San Martín 1059,425244.635447881,6244449.88206386
"05",COLONIA,"05320",COLONIA DEL SACRAMENTO,LA ROTONDA,Julio César González Moreno 203,422725.340058933,6187132.04022462
"05",COLONIA,"05422",ROSARIO,BORRAS,Ituzaingó 399 y 25 de Mayo,467657.02284501,6203082.71529522
"05",COLONIA,"05522",TARARIRAS,CAROLI,Carmelo 2202,443527.031260666,6208423.14788684
"05",COLONIA,"05323",JUAN LACAZE,CORMAR,Calle 20 esq. 5,458496.556282615,6191409.23285958
"05",COLONIA,"05320",COLONIA DEL SACRAMENTO,DA COSTA,Gral. Flores 321,422125.261701013,6185359.26203027
"05",COLONIA,"05423",NUEVA PALMIRA,DEL BRAVO,Av del Bravo 1175,370119.393805798,6250726.3014041
"05",COLONIA,"05320",COLONIA DEL SACRAMENTO,FELIX,Cnel. Lorenzo Latorre 1288,422579.395372683,6187646.27246429
"05",COLONIA,"05321",CARMELO,FEMME,19 de Abril 282,381422.564083602,6237151.88813361
"05",COLONIA,"05622",FLORENCIO SANCHEZ,FLORENCIO SANCHEZ,Colonia y 25 de Agosto,465535.035242878,6251651.50975016
"05",COLONIA,"05421",NUEVA HELVECIA,HELVETICA,Luis A. de Herrera 1101 e/ Artigas,478493.130353242,6205764.21359341
"05",COLONIA,"05522",TARARIRAS,LLUBERAS,Gral. Artigas 1896,443679.306504491,6208250.02484131
"05",COLONIA,"05421",NUEVA HELVECIA,MALLARINI,25 de Agosto 1111 e/ Luis Dreyer,478638.333697799,6206079.06494658
"05",COLONIA,"05831",MIGUELETE,MIGUELETE,25 de Agosto 1111 e/ Luis Dreyer,440210.085358177,6236846.68472668
"05",COLONIA,"05621",COLONIA VALDENSE,NUEVA TROCHE,Av. Dr. Armand Ugón 1358,475613.193628489,6199953.84488682
"05",COLONIA,"05521",OMBUES DE LAVALLE,OMBUES,Zorrilla de San Martín 838,424920.372585102,6244110.47812392
"01",MONTEVIDEO,"01020",MONTEVIDEO,FARMASHOP 68,Av. Italia 2863,577429.671172551,6138786.69132463
"01",MONTEVIDEO,"01020",MONTEVIDEO,FARMASHOP 70,Uruguayana 3501,572257.985244578,6141103.85082574
"05",COLONIA,"05423",NUEVA PALMIRA,PALMIRENSE,Gral. Artigas 970,369589.045208376,6251139.36003492
"05",COLONIA,"05323",JUAN LACAZE,PUERTO SAUCE,Av. Artigas 487,459409.693260809,6189827.89573736
"05",COLONIA,"05323",JUAN LACAZE,RUBENS,José Salvo 310,459597.16161063,6189539.08575626
"05",COLONIA,"05320",COLONIA DEL SACRAMENTO,SAN ROQUE 29 - COLONIA SHOPPING,Shopping Colonia Del Sacramento,423322.257079047,6185779.95838592
"05",COLONIA,"05320",COLONIA DEL SACRAMENTO,SAN ROQUE 37,Av. Artigas 389,422578.020891519,6185753.50699838
"05",COLONIA,"05621",COLONIA VALDENSE,VALDENSE,Av. Armand Ugón 1013,476126.237476779,6200456.62633056
"05",COLONIA,"05421",NUEVA HELVECIA,SAN ROQUE 44,Berna 1295,478506.375700278,6206305.95265311
"05",COLONIA,"05522",TARARIRAS,NUEVA,Lavalleja 2000,443609.32242822,6207860.13893431
"05",COLONIA,"05961",PLAYA PARANT,PARANT,Los Aromos esquina Rincon del Rey,476483.8563121,6189639.45448176
"06",DURAZNO,"06220",DURAZNO,LOMBARDI,Gral. Artigas 352 e/ Lavalleja ,544036.58830983,6306914.23502981
"06",DURAZNO,"06220",DURAZNO,SAN PEDRO,Herrera 874,544215.979010432,6306764.15039946
"06",DURAZNO,"06220",DURAZNO,SAN ROQUE  38,Manuel Oribe 817,544412.233272504,6306536.47061671
"06",DURAZNO,"06421",SARANDI DEL YI,DEL SARANDI,Presidente Berro 550,627526.354463706,6309608.92600973
"06",DURAZNO,"06421",SARANDI DEL YI,ROPIEL,Oribe 797,627677.869365489,6310296.4629532
"06",DURAZNO,"06421",SARANDI DEL YI,YATAY,Sarandí 414,627292.92196543,6309679.43958228
"07",FLORES,"07320",TRINIDAD,2212 NORTE,Inés Durán 657 e/ Carlos Mª Ramírez,509337.896202252,6291814.95149983
"07",FLORES,"07320",TRINIDAD,DEL REPUBLICA,Luis A. de Herrera y T.y Tres,509426.365933834,6291092.6140598
"07",FLORES,"07320",TRINIDAD,DERMIT,Francisco Fondar 479,509546.360757417,6291635.01713099
"07",FLORES,"07320",TRINIDAD,SAN ROQUE 36,Francisco Fondar 649,509530.198584435,6291311.49498761
"07",FLORES,"07320",TRINIDAD,OSTRA CENTRO,Francisco Fondar 691,509527.719884132,6291223.00021513
"07",FLORES,"07320",TRINIDAD,MODERNEL,18 de Julio y Fco.Fondar,509516.724633985,6290985.11526272
"07",FLORES,"07320",TRINIDAD,OSTA BATLLE,Batlle y Ordoñez 865,509710.890610755,6290873.82413592
"07",FLORES,"07721",ISMAEL CORTINAS,VIDAL,Gral. Artigas 368,491674.867770302,6242344.98771656
"11",PAYSANDU,"11120",PAYSANDU,ILEANA II,19 de Abril 1302 e/ P. Larrañaga,398117.398293506,6424634.92916422
"11",PAYSANDU,"11521",GUICHON,LLUBERAS GUICHON,18 de Julio 325,481039.76978079,6419845.65943505
"11",PAYSANDU,"11120",PAYSANDU,MEDICCI II,Av. España 1549,398931.888928115,6423797.05964203
"11",PAYSANDU,"11521",GUICHON,NANITOS,25 de Agosto 381,481135.470397002,6419750.92904748
"11",PAYSANDU,"11120",PAYSANDU,OLALDE II,Montecaseros e/ Colón,398250.048147466,6423318.44368135
"11",PAYSANDU,"11120",PAYSANDU,SAN ROQUE 35,19 de Abril e/ L.Gómez y 18 de Julio,397960.231519035,6423813.32385697
"11",PAYSANDU,"11120",PAYSANDU,SUIZA,Leandro Gómez 989,397720.470407428,6423834.00584568
"12",RIO NEGRO,"12320",FRAY BENTOS,BARRIO FB 2000,Rep. de Chile y calle Pública,378606.114685843,6335024.44607585
"12",RIO NEGRO,"12320",FRAY BENTOS,LA MUTUALISTA,Rincón 1102,377343.732510461,6335071.19932305
"12",RIO NEGRO,"12320",FRAY BENTOS,LAS CAÑAS,18 de Julio 1643,378220.618552297,6334444.24966354
"12",RIO NEGRO,"12320",FRAY BENTOS,SAN ROQUE 34,18 de Julio 1707,378339.609831284,6334337.48699417
"12",RIO NEGRO,"12320",FRAY BENTOS,FRAY BENTOS,,378636.507632266,6334057.66271595
"12",RIO NEGRO,"12320",FRAY BENTOS,ALZAIBAR,,377928.265182729,6334682.70891059
"12",RIO NEGRO,"12320",FRAY BENTOS,RIO URUGUAY,18 de Julio 1308,377723.203655642,6334867.16658908
"12",RIO NEGRO,"12421",YOUNG,CREVOISIER,Av. 18 de Julio 1830,441045.946334143,6381656.18494951
"12",RIO NEGRO,"12421",YOUNG,GARCEN,18 de Julio y Oribe ,440197.381381528,6381040.86257599
"12",RIO NEGRO,"12421",YOUNG,SAN SEBASTIAN,Montevideo 3547,440403.584703188,6381852.35162507
"12",RIO NEGRO,"12421",YOUNG,LONG,18 de Julio 1886,441141.879820614,6381720.40469871
"12",RIO NEGRO,"12622",SAN JAVIER,SAN JAVIER (EX SABELIN),Basilio Lubker s/n,393533.88686981,6385206.28020536
"13",RIVERA,"13621",VICHADERO,AVENDA II,Bvar. Artigas 186 bis,718803.218239296,6481999.16105537
"13",RIVERA,"13621",VICHADERO,VICHADERO,25 de Agosto s/n,718470.514925031,6481595.84681688
"13",RIVERA,"13522",TRANQUERAS,BERSANA - TRANQUERAS,18 de Julio 550,617426.017883919,6548730.6506858
"13",RIVERA,"13522",TRANQUERAS,TRANQUERAS,18 de Julio 597,617480.151116357,6548693.32685031
"13",RIVERA,"13521",MINAS DE CORRALES,DR.DAVISON,Dr. Davison,645110.004640007,6506063.49107324
"13",RIVERA,"13521",MINAS DE CORRALES,SERRALEX,Dr. Davison,644960.698222631,6506220.03104501
"13",RIVERA,"13522",TRANQUERAS,LUCHILD,18 de Julio 712,617740.138719729,6548455.56052609
"13",RIVERA,"13220",RIVERA,NARBONDO,Av. Brasil 895,638975.735799453,6580467.48926537
"13",RIVERA,"13220",RIVERA,RAFAEL,Artigas 452 e/ Ansina,638371.367347446,6581184.16080307
"13",RIVERA,"13220",RIVERA,TALITA,Presidente Viera 1299,639352.58324476,6579627.03288593
"03",CANELONES,"03521",BARROS BLANCOS,VERO,Ruta 8 Km 28.000,593080.45302149,6155196.32332594
"03",CANELONES,"03521",BARROS BLANCOS,LOS AROMOS,,589178.980971919,6152021.85501491
"03",CANELONES,"03321",LA PAZ,BERSANA II - LA PAZ,Av. Artigas 265,571016.392007768,6153026.24452661
"03",CANELONES,"03627",PARQUE DEL PLATA,BOLOGNA,Av. República Argentina s/n,618121.662939744,6153716.5216243
"03",CANELONES,"03624",CERRILLOS,CERRILLOS,Gral. Máximo Tajes s/n ,558607.907445666,6170245.77950826
"03",CANELONES,"03935",CUCHILLA ALTA,CUCHILLA ALTA,Av. Agustin Ponds s/n y Rambla,637633.119640127,6148642.21297778
"03",CANELONES,"03629",SAN JACINTO,DE DEL,Luis A. de Herrera s/n,603499.800223619,6176997.81807399
"03",CANELONES,"03629",SAN JACINTO,MARIA VERA,,603509.059819363,6176832.74327444
"03",CANELONES,"03221",LAS PIEDRAS,DEL CAMINO,Av. Artigas y Municipio,570757.845004627,6156906.08060885
"03",CANELONES,"03221",LAS PIEDRAS,DEL MOLINO,Dr. Pouey y Ramón Ortiz,571044.339142915,6155784.49063437
"03",CANELONES,"03221",LAS PIEDRAS,ELISAR CENTRO,Av. Artigas 629,571668.629558378,6156939.12766983
"03",CANELONES,"03221",LAS PIEDRAS,ELISAR,República Argentina 592,572241.598282484,6157019.5865758
"03",CANELONES,"03626",MIGUES,ESTE,Gregorio Migues y J.P.Varela,625796.401993947,6182890.86366332
"03",CANELONES,"03421",PROGRESO,FARMAIS,Ruta 5 Km. 28.500,571513.411340083,6163750.85504371
"03",CANELONES,"03321",LA PAZ,GUADALUPE,J. B. y Ordoñez 339 e/ C. Mayo G.,570701.292563374,6152972.68402955
"03",CANELONES,"03323",SANTA LUCIA,JUAN ANGEL,Roosevelt 59,556234.659664183,6187257.10039998
"03",CANELONES,"03724",LA FLORESTA,LA FLORESTA,Treinta y Tres y Argentina,621069.405444479,6152743.62871355
"03",CANELONES,"03729",SALINAS,MARIMAR,Interbalnearia Km. 39.200,606919.426184589,6151416.24491088
"03",CANELONES,"03323",SANTA LUCIA,MARSO,Dr. Legniani 452,556061.557325075,6187360.86372689
"03",CANELONES,"03626",MIGUES,MARTIN,Feliciano Viera s/n,625872.438559505,6182776.27090452
"03",CANELONES,"03320",CANELONES,NUEVA - CANELONES,Treinta y Tres 549 esq Rodó,565959.709068441,6179422.28673324
"03",CANELONES,"03321",LA PAZ,FARMASHOP 98,Jose Batlle y Ordoñez 181,570959.763871699,6152974.39038269
"03",CANELONES,"03321",LA PAZ,PACCINI CENTRO,Pedro Rosa Guiffini e/ J.B.y Ordoñez,570866.489589734,6152973.91370613
"03",CANELONES,"03320",CANELONES,PIRUJAS,Batlle y Ordoñez 769,565897.970167658,6179875.37595977
"03",CANELONES,"03528",TALA,POPULAR - TALA,18 de Julio e I. De León,613909.555088021,6198898.89295832
"03",CANELONES,"03628",SAN BAUTISTA,SAN BAUTISTA,Treinta y Tres Orientales s/n,595370.841273673,6188511.95056568
"03",CANELONES,"03729",SALINAS,"626",Ruta 87 esq. Abaroré,606039.414019664,6151810.30184464
"03",CANELONES,"03221",LAS PIEDRAS,BATLLE Y ORDOÑEZ,Batlle y Ordóñez 509,572097.551072106,6157051.25930153
"03",CANELONES,"03826",COSTA AZUL,FARMACOSTA,25 de Agosto esq. Gran Bretaña,623101.318416584,6151880.40561559
"01",MONTEVIDEO,"01020",MONTEVIDEO,PIGALLE 1,Félix Buxareo 1158 esq. Echevarriarza,578263.387102182,6136812.96206268
"01",MONTEVIDEO,"01020",MONTEVIDEO,PIGALLE 2,Av. Brasil 2570 esq. Gral. Brito del Pino,576881.526485327,6136868.47744137
"01",MONTEVIDEO,"01020",MONTEVIDEO,PIGALLE 3,Juan Benito Blanco 994 esq. José Martí,577765.65227957,6136202.17305917
"01",MONTEVIDEO,"01020",MONTEVIDEO,PIGALLE 4,21 de setiembre 2948 esq. Tomás Diago,577322.58282803,6135541.15048417
"01",MONTEVIDEO,"01020",MONTEVIDEO,PIGALLE 8 DE OCTUBRE,Av. 8 de Octubre 2547 esq. Presidente Berro,576518.942739477,6138622.0408676
"01",MONTEVIDEO,"01020",MONTEVIDEO,PIGALLE ALVAREZ,Av. Garibaldi 2567 esq. Monte Caseros,576448.379929577,6139237.02605291
"01",MONTEVIDEO,"01020",MONTEVIDEO,PIGALLE CANADA,Av. Bolivia 1429 esq. San Nicolás,585281.974153456,6138416.04186811
"01",MONTEVIDEO,"01020",MONTEVIDEO,PIGALE CIELMAR,Rincón 700 esq. Juncal,572964.349587122,6137145.87848032
"01",MONTEVIDEO,"01020",MONTEVIDEO,PIGALLE CORDON,Av. 18 de julio 2051 esq. Martín C. Martínez,575748.104730258,6137755.25758888
"01",MONTEVIDEO,"01020",MONTEVIDEO,PIGALLE LYON,Av. 18 de julio 2102 esq. Joaquín Requena,575865.183002765,6137780.15175216
"01",MONTEVIDEO,"01020",MONTEVIDEO,PIGALE DOMAR,Manuel V. Pagola 3295 esq. Chucarro,578104.66676147,6136702.29238242
"01",MONTEVIDEO,"01020",MONTEVIDEO,PIGALLE HERMES,Bvar. España 2502 esq. Obligado,576714.666611008,6136377.66192303
"01",MONTEVIDEO,"01020",MONTEVIDEO,PIGALLE MARAZUL,Av. 18 de julio 2151 esq. Juan Paullier,575948.923192249,6137851.97215407
"01",MONTEVIDEO,"01020",MONTEVIDEO,PIGALLE MASSONE,Gabriel Pereira 3148 esq. 26 de Marzo,577800.299179063,6136710.28171031
"01",MONTEVIDEO,"01020",MONTEVIDEO,SAN ROQUE 05 - MAM,Jose .L. Terra  2200   local   37 y 38,574631.801398912,6139192.48072434
"01",MONTEVIDEO,"01020",MONTEVIDEO,SAN ROQUE 06 - MONTEVIDEO SHOPPING,Luis A. de Herrera 1290 - Loc.152,578847.393909513,6137369.99498943
"01",MONTEVIDEO,"01020",MONTEVIDEO,SAN ROQUE 09 - CONVENCION,18 de Julio 900 esq. Convención,573350.523470392,6137041.98065641
"01",MONTEVIDEO,"01020",MONTEVIDEO,SAN ROQUE 11 - PORTONES SHOPPING,Av. Italia 5775 - Loc. 201/206,583901.21424677,6139734.90626342
"01",MONTEVIDEO,"01020",MONTEVIDEO,SAN ROQUE 13 - PASO MOLINO,Agraciada 4214,571307.744360931,6142622.51015195
"01",MONTEVIDEO,"01020",MONTEVIDEO,SAN ROQUE 14 - PUNTA CARRETAS SHOPPING,Ellauri 350 - Loc. 109 y 145,576817.899154345,6135084.95663984
"01",MONTEVIDEO,"01020",MONTEVIDEO,SAN ROQUE 16 - MALVIN,Mississipi 1647 esq. Rivera,582572.169868004,6138637.03670421
"01",MONTEVIDEO,"01020",MONTEVIDEO,SAN ROQUE 17 - CERRO,Avenida Carlos María Ramírez 1490,568829.814896592,6140803.35571853
"01",MONTEVIDEO,"01020",MONTEVIDEO,SAN ROQUE 21 - UNIVERSIDAD,Avenida 18 de Julio 1799 esq. Tristán Narvaja,575143.942165137,6137484.25816899
"01",MONTEVIDEO,"01020",MONTEVIDEO,SAN ROQUE 22 - ELLAURI,José Ellauri 512 esq. Montero,576973.245939267,6135371.76807353
"01",MONTEVIDEO,"01020",MONTEVIDEO,SAN ROQUE 28 - BENITO BLANCO,Gabriel Pereira 3298 esq. Benito Blanco,577990.868329413,6136469.56263094
"01",MONTEVIDEO,"01020",MONTEVIDEO,SAN ROQUE 30 - CIUDAD VIEJA,Sarandí 699,572986.714633348,6137045.20522309
"01",MONTEVIDEO,"01020",MONTEVIDEO,SAN ROQUE 31 - UNION,8 de Octubre 3640,578316.725800553,6140300.45348413
"01",MONTEVIDEO,"01020",MONTEVIDEO,SAN ROQUE 42 - AROCENA,Arocena 1681 esq. Rivera,586020.405239604,6139129.48283479
"01",MONTEVIDEO,"01020",MONTEVIDEO,SAN ROQUE 51 - CONSTITUYENTE,Constituyente 1789 esq. Gaboto,575110.118883676,6137019.6291708
"01",MONTEVIDEO,"01020",MONTEVIDEO,SAN ROQUE 52 - SALTERAIN,Rivera 2102 y Salterain,575822.498893475,6137470.75735355
"01",MONTEVIDEO,"01020",MONTEVIDEO,SAN ROQUE 58 - PAULLIER,Canelones 2198 esq. Paullier,576038.027032333,6136943.13173345
"01",MONTEVIDEO,"01020",MONTEVIDEO,SAN ROQUE 61 - PARQUE RODO,Av. Julio Herrera y Reissig 736,576214.668973187,6136034.98489053
"01",MONTEVIDEO,"01020",MONTEVIDEO,SAN ROQUE 63 - COMERCIO,Av Italia 3830 esq. Solano López,579593.814570356,6139134.34043022
"01",MONTEVIDEO,"01020",MONTEVIDEO,FARMASHOP 64,SARANDI 502,572649.817798565,6136919.31181715
"01",MONTEVIDEO,"01020",MONTEVIDEO,FARMASHOP 130,18 de Julio 850,573247.377880473,6137031.41690953
"01",MONTEVIDEO,"01020",MONTEVIDEO,FARMASHOP 21,Colonia 903,573366.811501989,6137173.01106243
"01",MONTEVIDEO,"01020",MONTEVIDEO,FARMASHOP 43,Av. 18 de Julio 1331,574240.369919463,6137135.21616336
"01",MONTEVIDEO,"01020",MONTEVIDEO,FARMASHOP 33,Av. 18 de Julio 1487,574562.237561079,6137214.35572527
"01",MONTEVIDEO,"01020",MONTEVIDEO,FARMASHOP 108,Colonia 1800,575108.01887416,6137557.63675852
"01",MONTEVIDEO,"01020",MONTEVIDEO,FARMASHOP 55,Av. 18 de Julio 1951,575491.688557828,6137638.57094652
"01",MONTEVIDEO,"01020",MONTEVIDEO,FARMASHOP 62,Bvar. Artigas 1481,576332.958765172,6137573.62169831
"01",MONTEVIDEO,"01020",MONTEVIDEO,FARMASHOP 52,20 de Setiembre 1525,576463.613566305,6137614.57680854
"01",MONTEVIDEO,"01020",MONTEVIDEO,FARMASHOP 42,Av. Ing Luis P. Ponce 1503,576773.641245672,6137707.96890978
"01",MONTEVIDEO,"01020",MONTEVIDEO,FARMASHOP 3,Av. Gral. Rivera 2755,577182.111764929,6137359.05323997
"01",MONTEVIDEO,"01020",MONTEVIDEO,FARMASHOP 50,Bvar. España 2167,575906.024577611,6136766.08344876
"01",MONTEVIDEO,"01020",MONTEVIDEO,FARMASHOP 99,Juan D. Jackson 1200,575545.636796157,6136900.11062778
"01",MONTEVIDEO,"01020",MONTEVIDEO,FARMASHOP 111,Jose Ellauri 411,576803.320660947,6135214.95144012
"01",MONTEVIDEO,"01020",MONTEVIDEO,FARMASHOP 15,21 de Setiembre 2867,577158.98719627,6135614.39039556
"01",MONTEVIDEO,"01020",MONTEVIDEO,FARMASHOP 22,Luis Franszini 806,576866.307131578,6135928.06472899
"01",MONTEVIDEO,"01020",MONTEVIDEO,FARMASHOP 38,Av. Sarmiento 2445,576701.995739558,6136130.8244673
"01",MONTEVIDEO,"01020",MONTEVIDEO,FARMASHOP 24,21 de Setiembre 2453,576549.118203395,6136238.99677226
"01",MONTEVIDEO,"01020",MONTEVIDEO,FARMASHOP 26,Bvar. España 2856,577520.514717481,6136083.12346465
"01",MONTEVIDEO,"01020",MONTEVIDEO,FARMASHOP 13,Dr. Jose Scosería 2614,577119.421472442,6136023.19630341
"01",MONTEVIDEO,"01020",MONTEVIDEO,FARMASHOP 18,Av. Brasil 2851,577418.167049129,6136474.18510855
"01",MONTEVIDEO,"01020",MONTEVIDEO,FARMASHOP 39,Av. Brasil 2703,577166.24230769,6136792.74524208
"10",MALDONADO,"01020",MONTEVIDEO,FARMASHOP 60,Av. Brasil 2500,576736.241014982,6136927.89639665
"01",MONTEVIDEO,"01020",MONTEVIDEO,FARMASHOP 11,Av. Luis A. De Herrera 2368,577676.565646994,6139374.86623114
"01",MONTEVIDEO,"01020",MONTEVIDEO,FARMASHOP 129,Av. Del Libertador 1953,573902.814866381,6137888.7628959
"01",MONTEVIDEO,"01020",MONTEVIDEO,FARMASHOP 28,Av. 8 de Octubre 3268,577673.350111877,6139851.74145846
"01",MONTEVIDEO,"01020",MONTEVIDEO,FARMASHOP 37,Av. 8 de Octubre 3439,577932.107107187,6140074.74792944
"10",MALDONADO,"01020",MONTEVIDEO,FARMASHOP 123,Ruta 39 y Av. Luis Alberto de Herrera - Centro Comercial Paseo del Este Local 17,577076.125346315,6140203.73492901
"01",MONTEVIDEO,"01020",MONTEVIDEO,FARMASHOP 29,Av. 8 de Octubre 3749,578520.344004406,6140474.84763204
"01",MONTEVIDEO,"01020",MONTEVIDEO,FARMASHOP 34,Av. 8 de Octubre 4002,578994.419015416,6140786.14012039
"01",MONTEVIDEO,"01020",MONTEVIDEO,FARMASHOP 32,Cno. Carrasco 4471,580236.944445776,6140761.62999921
"01",MONTEVIDEO,"01020",MONTEVIDEO,FARMASHOP 115,Veracierto 2563,580656.068885482,6140887.85025933
"01",MONTEVIDEO,"01020",MONTEVIDEO,EDANEL,,580576.193519127,6140843.83837158
"01",MONTEVIDEO,"01020",MONTEVIDEO,FARMASHOP 90,"Av. Luis Alberto de HErrera 3365, Nuevo Centro Shopping",575925.225368927,6141139.78743975
"01",MONTEVIDEO,"01020",MONTEVIDEO,FARMASHOP 44,Av. Gral Flores 3315,575627.699243171,6141333.50879966
"01",MONTEVIDEO,"01020",MONTEVIDEO,FARMASHOP 10,Av. Gral San Martin 3083,574760.033173962,6141086.70705169
"01",MONTEVIDEO,"01020",MONTEVIDEO,FARMASHOP 5,Av. Agraciada 3665,572215.006106139,6141572.05397722
"01",MONTEVIDEO,"01020",MONTEVIDEO,FARMASHOP 9,Av. Joaquin Suarez 3458,573558.385435445,6141700.40295437
"01",MONTEVIDEO,"01020",MONTEVIDEO,FARMASHOP 104,Av. Luis A. de Herrera 4111,574357.803709456,6142054.2731012
"01",MONTEVIDEO,"01020",MONTEVIDEO,FARMASHOP 61,Av. Agraciada 4104,571523.95992296,6142403.2120388
"01",MONTEVIDEO,"01020",MONTEVIDEO,FARMASHOP 23,Av. Agraciada 4269,571211.384093843,6142667.72771131
"01",MONTEVIDEO,"01020",MONTEVIDEO,FARMASHOP 89,Av. Carlos Maria Ramirez 802,569909.98490768,6141654.55789942
"01",MONTEVIDEO,"01020",MONTEVIDEO,FARMASHOP 119,Carlos Maria Ramirez 1851,568117.004039174,6140598.69599465
"01",MONTEVIDEO,"01020",MONTEVIDEO,FARMASHOP 69,Av. Luis Batlle Berres 6149,567408.998206337,6144532.06189477
"01",MONTEVIDEO,"01020",MONTEVIDEO,FARMASHOP 72,Cno. Ariel 4931,571550.359647794,6145216.73110195
"01",MONTEVIDEO,"01020",MONTEVIDEO,FARMASHOP 1,Cno. Ariel 4626,572116.324043758,6144871.61933554
"01",MONTEVIDEO,"01020",MONTEVIDEO,FARMASHOP 132,Aparicio Saravia 4644,573023.070791469,6145911.46155205
"01",MONTEVIDEO,"01020",MONTEVIDEO,FARMASHOP 117,Avda. Jose Belloni 4371,578563.830434165,6146171.67532916
"01",MONTEVIDEO,"01020",MONTEVIDEO,FARMASHOP 6,Av. Italia 6958,586137.5437324,6140103.04210384
"01",MONTEVIDEO,"01020",MONTEVIDEO,FARMASHOP 78,Av. Dr. Juan B. Alberdi 6502,585304.751024123,6139833.98120684
"01",MONTEVIDEO,"01020",MONTEVIDEO,FARMASHOP 77,Av. A. Arocena 1980 bis,585819.371534368,6139711.55902387
"01",MONTEVIDEO,"01020",MONTEVIDEO,FARMASHOP 16,Av. Alfredo Arocena 1657,586045.058452654,6139054.4168458
"01",MONTEVIDEO,"01020",MONTEVIDEO,FARMASHOP 73,Av. Gral Jose Maria Pez 1447,584044.242258062,6138405.15050694
"01",MONTEVIDEO,"01020",MONTEVIDEO,FARMASHOP 51,Orinoco 4993,582448.516793402,6138110.54585846
"01",MONTEVIDEO,"01020",MONTEVIDEO,FARMASHOP 14,Av. Enrique Legrand 5085,582355.249172426,6138831.97417225
"01",MONTEVIDEO,"01020",MONTEVIDEO,FARMASHOP 19,Almeria 4701/002,581529.268342091,6138306.12852952
"01",MONTEVIDEO,"01020",MONTEVIDEO,FARMASHOP 53,"Av. Italia 4280, Plaza Italia Shopping",580594.889985188,6139059.96964978
"01",MONTEVIDEO,"01020",MONTEVIDEO,FARMASHOP 59,Av. Italia 3949,579831.706207068,6139201.96235542
"10",MALDONADO,"01020",MONTEVIDEO,FARMASHOP 58,Av. Italia 3813,579500.888300381,6139195.12752219
"01",MONTEVIDEO,"01020",MONTEVIDEO,FARMASHOP 27,Av. Gral E. Garzon 1925,571127.197352297,6148195.22487287
"01",MONTEVIDEO,"01020",MONTEVIDEO,FARMASHOP 114,Lezica 6326,568867.457413559,6149219.90627959
"01",MONTEVIDEO,"01020",MONTEVIDEO,FARMASHOP 113,Lezica 6394,568704.261545763,6149401.17924796
"01",MONTEVIDEO,"01020",MONTEVIDEO,FARMASHOP 109,San Jose 1052,573688.247868178,6136959.76236157
"03",CANELONES,"03322",PANDO,FARMASHOP 2,Ruta 8  Km. 30.500,594823.761494859,6156832.80031613
"03",CANELONES,"03322",PANDO,FARMASHOP 35,Av. Gral. Jose G. Artigas 1068,595198.321309767,6157404.16467547
"10",MALDONADO,"10523",PIRIAPOLIS,FARMASHOP 4,Av. Francisco Piria Es. Bs.As.,658188.282718168,6140543.02194743
"10",MALDONADO,"10524",PUNTA DEL ESTE,FARMASHOP 76,Av. Juan Gorlero 780,687780.637782694,6129237.96051553
"10",MALDONADO,"10524",PUNTA DEL ESTE,FARMASHOP 75,Av. Juan Gorlero 993,688104.588600267,6129575.85115591
"10",MALDONADO,"10524",PUNTA DEL ESTE,FARMASHOP 7,Av. Roosevelt y P. 10,687497.826609249,6133042.53332226
"10",MALDONADO,"10524",PUNTA DEL ESTE,FARMASHOP 121,"Av. Pedragosa Sierra Esq. Roosevelt, Torre Place Lafayette Local 8",688071.676811561,6132379.88689276
"10",MALDONADO,"10524",PUNTA DEL ESTE,IBIZA,,687708.752286912,6132789.31722636
"10",MALDONADO,"10524",PUNTA DEL ESTE,FARMASHOP 17,Av. Roosevelt esq Z. Michelini,687149.035311284,6133474.55757608
"10",MALDONADO,"10830",PINARES - LAS DELICIAS,FARMASHOP 88,Av. Camacho esq. Av. Roosevelt,686207.982007365,6133950.15333728
"10",MALDONADO,"10320",MALDONADO,FARMASHOP 120,Florida 784,686528.824617001,6135234.88340869
"10",MALDONADO,"10830",PINARES - LAS DELICIAS,FARMASHOP 122,"Av. Leandro Gomez, Jardines del Mar y Sol Local 03",683422.958293462,6136193.77811467
"10",MALDONADO,"10936",EL TESORO,FARMASHOP 71,Ruta 10 Av. Eduardo V Haedo entre Las Brisas y Los Romances. Loc 209,694328.324091199,6135027.13697536
"03",CANELONES,"03221",LAS PIEDRAS,FARMASHOP 93,Av. Dr. Enrique Pouey 607,571084.768109699,6156906.93066127
"03",CANELONES,"03221",LAS PIEDRAS,FARMASHOP 30,Av. Rivera 609,571795.626743551,6156911.82276502
"03",CANELONES,"03221",LAS PIEDRAS,FARMASHOP 31,Av. Artigas 539,571996.137179342,6156950.5862686
"01",MONTEVIDEO,"01020",MONTEVIDEO,FARMASHOP 36,Av. Gral San Martin 3402,575065.637789803,6141873.90294999
"03",CANELONES,"03722",BARRA DE CARRASCO,FARMASHOP 49,Av. de las Américas 6000,588551.086078901,6140966.48537906
"03",CANELONES,"03722",BARRA DE CARRASCO,FARMASHOP 45,Av. Del Parque 77,589471.471636948,6141119.32449584
"07",FLORES,"07320",TRINIDAD,FARMASHOP 46,Presidente Berro 530,509557.854979048,6291213.66690431
"01",MONTEVIDEO,"01020",MONTEVIDEO,FARMASHOP 48,Estanislao Lopez 4856 Local 002,581914.866784832,6138969.93959962
"03",CANELONES,"03732",SOLYMAR,FARMASHOP 54,Av. Giannattasio Km. 22800,594193.425544871,6145453.11703627
"16",SAN JOSE,"16421",LIBERTAD,FARMASHOP 127,Wilson Ferreira Aldunate Esq. Jose Enrique Rodo,534776.130617204,6167071.21055491
"16",SAN JOSE,"16220",SAN JOSE DE MAYO,FARMASHOP 63,Gral. Jose G. Artigas 561,526245.792834724,6200176.50930545
"05",COLONIA,"05421",NUEVA HELVECIA,FARMASHOP 116,Av. Luis A. de Herrera  Esq. G. Tell,478559.553912862,6205856.98174169
"05",COLONIA,"05320",COLONIA DEL SACRAMENTO,FARMASHOP 85,Gral: Flores 450,422386.11113773,6185335.7187829
"05",COLONIA,"05320",COLONIA DEL SACRAMENTO,FARMASHOP 125,Av. Jose Batlle y Ordoñez s/n esquina Ruta N 21,423555.024596506,6186910.05018268
"10",MALDONADO,"10321",SAN CARLOS,FARMASHOP 65,Av. Cebeiro 581,690104.756991873,6147643.23544604
"10",MALDONADO,"10321",SAN CARLOS,FARMASHOP 67,18 de Julio 1011,690448.385258857,6147847.91154221
"03",CANELONES,"03828",EL PINAR,FARMASHOP 118,Uruguay Esq. Rio Negro,598791.03363493,6148459.54262181
"03",CANELONES,"03831",LAGOMAR,FARMASHOP 74,Av. Giannattasio Km. 21800,593183.551688758,6144806.79666565
"04",CERRO LARGO,"04220",MELO,FARMASHOP 80,Oribe 898,766659.382647228,6414261.84834406
"04",CERRO LARGO,"04220",MELO,FARMASHOP 79,Aparicio Saravia 649,766382.306557454,6414965.47877618
"04",CERRO LARGO,"04220",MELO,FARMASHOP 81,Florencio Sanchez 898,766799.969434697,6415104.8920691
"11",PAYSANDU,"11120",PAYSANDU,FARMASHOP 82,18 de Julio 1405,398652.092487655,6423832.4011378
"11",PAYSANDU,"11120",PAYSANDU,FARMASHOP 83,18 de Julio 1119,397976.011453395,6423910.9375415
"02",ARTIGAS,"02220",ARTIGAS,FARMASHOP 84,Av. Cnel. Carlos Lecueder 250,551449.853765081,6636813.22579356
"12",RIO NEGRO,"12421",YOUNG,FARMASHOP 86,18 de Julio 1680,440754.008483914,6381437.67622503
"12",RIO NEGRO,"12421",YOUNG,FARMASHOP 87,18 de Julio 1953,441384.498634556,6381909.28295918
"17",SORIANO,"17220",MERCEDES,FARMASHOP 92,Gral. Jose Artigas 289,404111.522349958,6320622.51483262
"17",SORIANO,"17220",MERCEDES,FARMASHOP 91,Jose Enrique Rodo 550,403734.188747354,6320389.65223301
"06",DURAZNO,"06220",DURAZNO,FARMASHOP 95,Brig. Gral. Manuel Oribe 751,544356.53336132,6306437.41077164
"15",SALTO,"15120",SALTO,FARMASHOP 96,Uruguay 697,408074.521334349,6527081.0248125
"13",RIVERA,"13220",RIVERA,FARMASHOP 97,Sarandi 509,639593.637125445,6580636.85814429
"05",COLONIA,"05321",CARMELO,FARMASHOP 100,19 de abril 508,381511.588198296,6237594.26681432
"06",DURAZNO,"06220",DURAZNO,FARMASHOP 101,19 de Abril 946,544193.354523257,6306948.01936735
"15",SALTO,"15120",SALTO,FARMASHOP 102,18 de Julio 372,408538.806915762,6526519.98035852
"05",COLONIA,"05320",COLONIA DEL SACRAMENTO,FARMASHOP 103,Jose Pedro Varela 596,423000.646969406,6186194.96434108
"09",LAVALLEJA,"09220",MINAS,FARMASHOP 105,25 de Mayo 582,662158.446662224,6194676.81883537
"14",ROCHA,"14320",ROCHA,FARMASHOP 106,Jose Pedro Ramirez 200,744880.969471504,6180959.11743289
"03",CANELONES,"03320",CANELONES,FARMASHOP 107,Treinta y Tres 368 esq. Tolentino Gonzalez,565945.738670325,6179641.02042032
"10",MALDONADO,"10522",PAN DE AZUCAR,FARMASHOP 110,Felix de Lizarza 678,662373.677376584,6150263.887278
"10",MALDONADO,"10956",PUNTA BALLENA,FARMASHOP 124,Ruta Interbalnearia Km.118 Estacion Ancap Solanas,677957.448112486,6138689.1180804
"18",TACUAREMBO,"18220",TACUAREMBO,FARMASHOP 126,Pablo Rios 149,597409.415124502,6489444.67711726
"16",SAN JOSE,"16220",SAN JOSE DE MAYO,FARMASHOP 131,Av. Luis A. De Herrera 701,526851.204047624,6199758.49554951
"01",MONTEVIDEO,"01020",MONTEVIDEO,FARMASHOP 133,Av. 18 de Julio 1644,574851.398971173,6137306.14564352
"17",SORIANO,"17220",MERCEDES,FARMASHOP 136,Jose Enrique Rodo 718,404076.286035029,6320464.24514295
"01",MONTEVIDEO,"01020",MONTEVIDEO,FARMASHOP 137,Av. Luis A. de Herrera 2888,577041.357432251,6140317.64250214
