NOMBRE,DIRECCION,x,y,POBLACION
18 SAN JOSE,A. de Figueroa 600 e/ 18 de Julio,525932.023542683,6200117.73209313,15969.0
2212 NORTE,Inés Durán 657 e/ Carlos Mª Ramírez,509337.896202252,6291814.95149983,12426.0
25 DE MAYO - FLORIDA,19 de Junio 1195 esq. Gral F. Rivera,560609.350316288,6215780.23711918,2056.0
4 DE OCTUBRE,Luis A.de Herrera 456 e/ Artigas,526353.337393848,6199643.72916301,17465.0
626,Ruta 87 esq. Abaroré,606039.414019664,6151810.30184464,8148.0
ABE BELLINI,18 de Julio 582 e/ 25 de Mayo,526434.363763323,6200235.57718101,19097.0
ACOSTA,Durante y Montevideo s/n,584371.774215203,6187268.75614607,1788.0
AEROPUERTO,Av. Del Lago 2 y Carrá,586634.673130798,6141925.07351552,10167.0
AGRACIADA,Treinta y Tres y 19 de Abril,382715.646745624,6258275.54461998,688.0
AL MAR,Av. Tomás Berreta s/n,588424.062143109,6182235.77685117,3677.0
ALBISU,Uruguay 554,407898.953005601,6527071.7286625,15583.0
ALFA,Rincón 353,457961.052728045,6633414.5340271,2768.0
ALQUIMIA,Av. Artigas 829,562118.802211039,6268230.41523956,6277.0
ALVARIZA,Alvariza 831,690241.057058973,6148257.91026675,18845.0
ANTARES,Sarandí y Rivera,467538.548210403,6203017.80305621,9110.0
ANTARTIDA,Colonia 1475 BIS,574493.796529008,6137282.79518008,61633.0
AREVALO I,Treinta y Tres 1055,595362.539625559,6157337.53007517,14224.0
AREVALO II,25 de Agosto 928,595478.75498594,6157820.09441173,15328.0
AREVALO III,Francisco Menezes 1057,595482.029877308,6157549.4121522,14556.0
ARRECHEA,Av. Artigas y Palmar,571752.767299439,6163469.12932171,5621.0
ARRIETA,Gral. Artigas 928,369533.981242102,6251199.28028911,6924.0
ARTIGAS,Av. Artigas 698,441878.805591333,6652086.76197686,7460.0
ARTIGAS - OMBUES DE LAVALLE,Zorrilla de San Martín 1059,425244.635447881,6244449.88206386,3368.0
ASENCIO,Av. Asencio 1549,386866.681053592,6289396.71413303,13181.0
ATENEA 1,Giannattasio Km 27200,597727.082064643,6147770.11238331,9037.0
AVENDA II,Bvar. Artigas 186 bis,718803.218239296,6481999.16105537,3596.0
AVENIDA,Gral. Flores 685 e/ Cabrera y Garibaldi,571496.285796394,6156832.76531888,21183.0
BALNEARIO BUENOS AIRES,Calle 26 esquina 49,701479.500610234,6137056.51692747,1416.0
BARCELONA,Bulevar España 2319,576252.164885854,6136609.87552748,59313.0
BARRIO FB 2000,Rep. de Chile y calle Pública,378606.114685843,6335024.44607585,11440.0
BARROS BLANCOS,Ruta 8 Km.25,590533.519432225,6153286.77981174,8020.0
BATLLE Y ORDOÑEZ,Batlle y Ordóñez 509,572097.551072106,6157051.25930153,18988.0
BELLINI,Fregeiro 738,404276.407631532,6319652.2099532,22395.0
BENGOECHEA - PASO DE LOS TOROS,Leandro Gómez 521,545889.0137423,6369410.93241362,5929.0
BERO,Bvar. Artigas 358,546219.224505428,6369332.29920169,4191.0
BERSANA - TRANQUERAS,18 de Julio 550,617426.017883919,6548730.6506858,4990.0
BERSANA II - LA PAZ,Av. Artigas 265,571016.392007768,6153026.24452661,15007.0
BIDEGAIN,25 de Agosto 980,534924.657488923,6167467.65305243,9721.0
BIKINI,Ruta 10 Km 164,698530.679934126,6135319.07229486,392.0
BOASSO,Rivera s/n,671978.884319642,6294974.34120172,2346.0
BOLOGNA,Av. República Argentina s/n,618121.662939744,6153716.5216243,2902.0
BORRAS,Ituzaingó 399 y 25 de Mayo,467657.02284501,6203082.71529522,8867.0
BRICCOLA,Santiago Rodríguez 915,542337.957064786,6195393.73203342,3241.0
BRISAN,María Olimpia y 18 de Julio ,596157.007283534,6490405.21182275,17780.0
CACERES,Bulevar España 2941,577657.946360409,6136076.70454099,60315.0
CALERO,Uruguay 1099,408600.124077875,6527013.67775609,20800.0
CAMAÑO,Brito del Pino 1314,576940.750719353,6137199.36734707,57653.0
CAROLI,Carmelo 2202,443527.031260666,6208423.14788684,6789.0
CASTILLOS,Olivera 1230,789285.565138402,6211268.6447005,6878.0
CEDEMCAR,Ejido 741,690900.896589569,6148540.15638586,15730.0
CERRILLOS,Gral. Máximo Tajes s/n ,558607.907445666,6170245.77950826,3790.0
CERRO CHATO,Julio A. Goday s/n,674195.858932177,6335098.33765739,2376.0
CHIAZZARO,Uruguay 666,408048.492078257,6527053.81410902,16658.0
CHIQUITIN,Av. Brasil 685,828652.346365249,6266245.66795744,5896.0
CHIQUITIN II,Av. Brasil 359,828951.319112301,6266219.00582774,4650.0
CINA CINA,Yamandú Gamba 94,609213.541153086,6390476.9723848,3315.0
CLAVIJO,Ruta 26 - Las Toscas,687531.101857259,6437517.18632249,1926.0
COLONIAL,Pedragosa Sierra y Bvar.Artigas,688451.545432929,6131058.09019875,2787.0
CONSTITUCION SUR,Camino Maldonado 5516,579944.983878316,6143707.14717504,23225.0
CORAL,Bvar. José Batlle y Ordóñez 1375,579507.63583255,6138447.88464567,38188.0
CORMAR,Calle 20 esq. 5,458496.556282615,6191409.23285958,4509.0
CREVOISIER,Av. 18 de Julio 1830,441045.946334143,6381656.18494951,11367.0
CRISTAL,Av. Gral Artigas 128,828581.904917007,6266208.15828146,6615.0
CUCHILLA ALTA,Av. Agustin Ponds s/n y Rambla,637633.119640127,6148642.21297778,665.0
DA COSTA,Gral. Flores 321,422125.261701013,6185359.26203027,5030.0
DANJOVI,Av. Río de la Plata Parada 5 y 1/2,550238.73617816,6155343.75871563,7022.0
DARIEL,Av. Artigas s/n,495805.418072803,6198191.36602189,2604.0
DE DEL,Luis A. de Herrera s/n,603499.800223619,6176997.81807399,4527.0
DE LA ALDEA,Av. Central s/n,819392.763164787,6227438.82317312,755.0
DE MARCO,Av. Luis Alberto de Herrera 2957,576867.94662873,6140541.30016501,32002.0
DEL 26,Ruta 1 Km 26.600 M. 192 S.3,555209.089216976,6152882.11742353,5959.0
DEL BRAVO,Av del Bravo 1175,370119.393805798,6250726.3014041,6408.0
DEL CAMINO,Av. Artigas y Municipio,570757.845004627,6156906.08060885,18684.0
DEL MIRADOR,Cno. de los Gauchos e/ Chiossi,687889.223107489,6136110.02295736,27770.0
DEL MOLINO,Dr. Pouey y Ramón Ortiz,571044.339142915,6155784.49063437,20190.0
DEL NAVIO,Av. del Navio y Lira ,759805.961121201,6160830.75742868,1640.0
DEL PARQUE,18 Julio 126,596895.238498148,6491181.70991196,12804.0
DEL PUEBLO - TACUAREMBO,25 de Mayo 187,596671.943252093,6491116.62912944,15333.0
DEL PUEBLO - VELAZQUEZ,Hilario Gómez y Mario Sobrero,750976.816808518,6230522.28750161,1077.0
DEL REPUBLICA,Luis A. de Herrera y T.y Tres,509426.365933834,6291092.6140598,13933.0
DEL SARANDI,Presidente Berro 550,627526.354463706,6309608.92600973,6008.0
DEMILTON,Angela B. de López 525,544914.578018135,6369897.32481697,9916.0
DERMIT,Francisco Fondar 479,509546.360757417,6291635.01713099,13516.0
DIADRI,Camino Lussich y Firenze,685649.781997292,6136429.67265845,15299.0
DOLORES,Asencio 2199 e/ Alberto Saavedra,387546.871001588,6288248.80001608,7319.0
DOROTTE NORTE,Dr. Roldán esq. Andresito,398259.146869675,6425577.4337005,12902.0
DOS NACIONES,Enrique Amorin 1201 esquina A. Invernizzi,408916.258043618,6528183.57324864,16835.0
DOS VIAS, 19 de Abril 1462,789705.411357546,6211411.45036145,7118.0
DR.DAVISON,Dr. Davison,645110.004640007,6506063.49107324,3811.0
DRABBLE,José Enrique Rodó,450657.951100609,6271141.05360796,1969.0
DUPEST,Independencia 651,572345.638690932,6226661.40539135,18271.0
EL MAGO,Ruta 1 Km. 72 - Artigas 519,518607.912902144,6179617.91866418,2110.0
EL TUNEL,Avelino Miranda 2615 esq Av. Italia,576504.046759143,6138419.79159578,40642.0
EL TUNEL 10,Avda. Gorlero S/N entre parada 28 y 29,687936.44675989,6129398.26880833,2002.0
EL TUNEL 2,Solano Garcia 2569 esq Victor Soliño,576986.993713313,6135100.77661739,32135.0
EL TUNEL 3,26 de Marzo 3397 esq. Julio César,578593.967751789,6137036.63161371,41810.0
EL TUNEL 4,Juan B.Alberdi 6597 esq. Murillo,585569.476436805,6139910.7380464,11598.0
EL TUNEL 5,18 de Julio 945A esq. Río Branco,573445.095084978,6137077.69056866,38768.0
EL TUNEL 5,Hipolito Yrigoyen 1599 esq. Av. Gral. Rivera,581411.692259897,6138642.38538397,29584.0
EL TUNEL 8,Camino Luis Eduardo Pérez 6651 (Sector Polivalente Nº local C - 017),567448.504857376,6146860.09777282,1123.0
EL TUNEL BEBES Y NIÑOS,Avelino Miranda 2605 esq. 8 de Octubre,576466.402028877,6138446.77328096,42023.0
ELISAR,República Argentina 592,572241.598282484,6157019.5865758,18227.0
ELISAR CENTRO,Av. Artigas 629,571668.629558378,6156939.12766983,21023.0
ELTUNEL 9,18 de Julio 1195 esq. Cuareim,573954.764092241,6137113.25902316,55119.0
ENY,José E. Rodó 3654 e/ M.Oribe,572062.221449233,6226361.16401085,17034.0
ESCANDA,Ruta 2 Km. 209.500,450396.201519728,6271266.20417198,1805.0
ESPAÑA,José E.Rodó 1452 esq. L.Macedo,744319.550890575,6320154.85106163,12911.0
ESPONDA,Gral Artigas 163,609378.540389516,6390824.81680592,3483.0
ESTACION ATLANTIDA,Calle El Ibirapitá s/n entre Ruta 11 y El Canelón,613166.844603058,6154808.66517337,3029.0
ESTE,Gregorio Migues y J.P.Varela,625796.401993947,6182890.86366332,2591.0
FAMASHOP 66,Manuel Melendez 1135,743753.204773754,6320162.38504052,15431.0
FARINA,José E. Rodó y W. Beltrán,662259.500462157,6194647.82476714,16063.0
FARMA & GLAM (ANDES),Soriano 850,573262.576235601,6136844.50844272,35100.0
FARMA & GLAM (ANDROMEDA),Garcia de Zuniga 2211,576221.20957896,6135679.960624,31420.0
FARMA & GLAM (EROSA),Jose E. Rodo 2101,575717.788372944,6137383.94891405,65098.0
FARMA & GLAM (GALENA),Arenal Grande 1352,575557.538096269,6137372.57428259,66743.0
FARMA & GLAM (KENNY),Rondeau 1685,573799.861587856,6137772.95900437,39878.0
FARMA & GLAM (LA CAJA),Colonia 1870,575239.564776818,6137624.30383789,63672.0
FARMA & GLAM (LOS FAROLES),Durazno 1102,573830.801791198,6136554.19752247,40751.0
FARMA & GLAM (LUJAN),18 de Julio 2176,576000.032632675,6137839.12252986,55417.0
FARMACENTRO,Av. Artigas 901,442097.749507484,6652175.09778682,9084.0
FARMACENTRO,Herrera 650,766317.474835786,6415069.24482465,17249.0
FARMACITY,21 de Septiembre 2753,576982.901347073,6135774.68815797,54704.0
FARMACITY,Av. Brasil 3077,577667.941059929,6136237.59194205,64206.0
FARMACITY,Av. Italia 3250,578172.545810587,6139058.71708727,39159.0
FARMACITY,Av. Luis A. Herrera 1248,578839.632369228,6137210.87676895,33929.0
FARMACITY,Blvd Artigas esquina 22,613358.315308411,6151586.24837629,3991.0
FARMACOSTA,25 de Agosto esq. Gran Bretaña,623101.318416584,6151880.40561559,895.0
FARMAGLOBAL,Av. Italia 2941,577576.768001565,6138834.97422913,33962.0
FARMAGLOBAL,Francisco Solano Antuña 2752,577301.461985404,6135672.00993147,53392.0
FARMAGLOBAL  4, Av. Brasil 2948,577480.673406188,6136457.8260095,75036.0
FARMAGLOBAL 11,Av. Giannattasio 21.500,592920.752506252,6144636.32687565,10116.0
FARMAGLOBAL 14,Bv. Gral. Artigas 1157,576384.753653907,6136907.91783247,64032.0
FARMAGLOBAL 2,Jaime Zudáñez,577461.689212509,6135908.70747886,59054.0
FARMAGLOBAL 5,José Ellauri 868,577334.429652724,6136086.04845207,68188.0
FARMAGLOBAL 7,21 de Setiembre 3076,577555.699017305,6135475.38105795,40726.0
FARMAGLOBAL 8,Ramón Masini 3379,577840.644792289,6136379.83707749,61854.0
FARMAHORRO EL TUNEL  ,Avda Agraciada 4061 Bis,571559.969323787,6142316.90894532,25278.0
FARMAIS,Ruta 5 Km. 28.500,571513.411340083,6163750.85504371,5840.0
FARMASHOP 1,Cno. Ariel 4626,572116.324043758,6144871.61933554,19750.0
FARMASHOP 10,Av. Gral San Martin 3083,574760.033173962,6141086.70705169,37555.0
FARMASHOP 100,19 de abril 508,381511.588198296,6237594.26681432,12976.0
FARMASHOP 101,19 de Abril 946,544193.354523257,6306948.01936735,15587.0
FARMASHOP 102,18 de Julio 372,408538.806915762,6526519.98035852,17603.0
FARMASHOP 103,Jose Pedro Varela 596,423000.646969406,6186194.96434108,9388.0
FARMASHOP 104,Av. Luis A. de Herrera 4111,574357.803709456,6142054.2731012,30511.0
FARMASHOP 105,25 de Mayo 582,662158.446662224,6194676.81883537,17070.0
FARMASHOP 106,Jose Pedro Ramirez 200,744880.969471504,6180959.11743289,12136.0
FARMASHOP 107,Treinta y Tres 368 esq. Tolentino Gonzalez,565945.738670325,6179641.02042032,15435.0
FARMASHOP 108,Colonia 1800,575108.01887416,6137557.63675852,64024.0
FARMASHOP 109,San Jose 1052,573688.247868178,6136959.76236157,45829.0
FARMASHOP 11,Av. Luis A. De Herrera 2368,577676.565646994,6139374.86623114,38707.0
FARMASHOP 110,Felix de Lizarza 678,662373.677376584,6150263.887278,5589.0
FARMASHOP 111,Jose Ellauri 411,576803.320660947,6135214.95144012,35012.0
FARMASHOP 112 GO-BA,Av. Grito de Asencio 1751,387094.236619296,6289026.06028702,13138.0
FARMASHOP 113,Lezica 6394,568704.261545763,6149401.17924796,10738.0
FARMASHOP 114,Lezica 6326,568867.457413559,6149219.90627959,12157.0
FARMASHOP 115,Veracierto 2563,580656.068885482,6140887.85025933,29673.0
FARMASHOP 116,Av. Luis A. de Herrera  Esq. G. Tell,478559.553912862,6205856.98174169,7201.0
FARMASHOP 117,Avda. Jose Belloni 4371,578563.830434165,6146171.67532916,26356.0
FARMASHOP 118,Uruguay Esq. Rio Negro,598791.03363493,6148459.54262181,8488.0
FARMASHOP 119,Carlos Maria Ramirez 1851,568117.004039174,6140598.69599465,24057.0
FARMASHOP 12,Juan Benito Blanco 1098,577925.426100426,6136385.3426149,58384.0
FARMASHOP 120,Florida 784,686528.824617001,6135234.88340869,19503.0
FARMASHOP 121,"Av. Pedragosa Sierra Esq. Roosevelt, Torre Place Lafayette Local 8",688071.676811561,6132379.88689276,2383.0
FARMASHOP 122,"Av. Leandro Gomez, Jardines del Mar y Sol Local 03",683422.958293462,6136193.77811467,2291.0
FARMASHOP 123,Ruta 39 y Av. Luis Alberto de Herrera - Centro Comercial Paseo del Este Local 17,577076.125346315,6140203.73492901,34747.0
FARMASHOP 124,Ruta Interbalnearia Km.118 Estacion Ancap Solanas,677957.448112486,6138689.1180804,408.0
FARMASHOP 125,Av. Jose Batlle y Ordoñez s/n esquina Ruta N 21,423555.024596506,6186910.05018268,7387.0
FARMASHOP 126,Pablo Rios 149,597409.415124502,6489444.67711726,12326.0
FARMASHOP 127,Wilson Ferreira Aldunate Esq. Jose Enrique Rodo,534776.130617204,6167071.21055491,8670.0
FARMASHOP 129,Av. Del Libertador 1953,573902.814866381,6137888.7628959,37779.0
FARMASHOP 13,Dr. Jose Scosería 2614,577119.421472442,6136023.19630341,66225.0
FARMASHOP 130,18 de Julio 850,573247.377880473,6137031.41690953,34521.0
FARMASHOP 131,Av. Luis A. De Herrera 701,526851.204047624,6199758.49554951,15841.0
FARMASHOP 132,Aparicio Saravia 4644,573023.070791469,6145911.46155205,17542.0
FARMASHOP 133,Av. 18 de Julio 1644,574851.398971173,6137306.14564352,65414.0
FARMASHOP 136,Jose Enrique Rodo 718,404076.286035029,6320464.24514295,19843.0
FARMASHOP 137,Av. Luis A. de Herrera 2888,577041.357432251,6140317.64250214,34287.0
FARMASHOP 14,Av. Enrique Legrand 5085,582355.249172426,6138831.97417225,22878.0
FARMASHOP 15,21 de Setiembre 2867,577158.98719627,6135614.39039556,50793.0
FARMASHOP 16,Av. Alfredo Arocena 1657,586045.058452654,6139054.4168458,8901.0
FARMASHOP 17,Av. Roosevelt esq Z. Michelini,687149.035311284,6133474.55757608,4264.0
FARMASHOP 18,Av. Brasil 2851,577418.167049129,6136474.18510855,75054.0
FARMASHOP 19,Almeria 4701/002,581529.268342091,6138306.12852952,23744.0
FARMASHOP 2,Ruta 8  Km. 30.500,594823.761494859,6156832.80031613,9385.0
FARMASHOP 20,Av. Italia 2490,576604.716696443,6138415.84399541,38897.0
FARMASHOP 21,Colonia 903,573366.811501989,6137173.01106243,37627.0
FARMASHOP 22,Luis Franszini 806,576866.307131578,6135928.06472899,60325.0
FARMASHOP 23,Av. Agraciada 4269,571211.384093843,6142667.72771131,27208.0
FARMASHOP 24,21 de Setiembre 2453,576549.118203395,6136238.99677226,57479.0
FARMASHOP 25,Av. Gral Rivera 4241,580215.461459583,6138149.25271816,27331.0
FARMASHOP 26,Bvar. España 2856,577520.514717481,6136083.12346465,64511.0
FARMASHOP 27,Av. Gral E. Garzon 1925,571127.197352297,6148195.22487287,19140.0
FARMASHOP 28,Av. 8 de Octubre 3268,577673.350111877,6139851.74145846,37635.0
FARMASHOP 29,Av. 8 de Octubre 3749,578520.344004406,6140474.84763204,37048.0
FARMASHOP 3,Av. Gral. Rivera 2755,577182.111764929,6137359.05323997,51515.0
FARMASHOP 30,Av. Rivera 609,571795.626743551,6156911.82276502,20813.0
FARMASHOP 31,Av. Artigas 539,571996.137179342,6156950.5862686,19870.0
FARMASHOP 32,Cno. Carrasco 4471,580236.944445776,6140761.62999921,32802.0
FARMASHOP 33,Av. 18 de Julio 1487,574562.237561079,6137214.35572527,63213.0
FARMASHOP 34,Av. 8 de Octubre 4002,578994.419015416,6140786.14012039,34987.0
FARMASHOP 35,Av. Gral. Jose G. Artigas 1068,595198.321309767,6157404.16467547,14905.0
FARMASHOP 36,Av. Gral San Martin 3402,575065.637789803,6141873.90294999,31029.0
FARMASHOP 37,Av. 8 de Octubre 3439,577932.107107187,6140074.74792944,36748.0
FARMASHOP 38,Av. Sarmiento 2445,576701.995739558,6136130.8244673,60014.0
FARMASHOP 39,Av. Brasil 2703,577166.24230769,6136792.74524208,75256.0
FARMASHOP 4,Av. Francisco Piria Es. Bs.As.,658188.282718168,6140543.02194743,4734.0
FARMASHOP 40,Gabriel Pereira 3209,577906.188073181,6136620.34152926,60977.0
FARMASHOP 41,25 de Mayo 293,596353.561703223,6490787.22731476,18497.0
FARMASHOP 42,Av. Ing Luis P. Ponce 1503,576773.641245672,6137707.96890978,50615.0
FARMASHOP 43,Av. 18 de Julio 1331,574240.369919463,6137135.21616336,62218.0
FARMASHOP 44,Av. Gral Flores 3315,575627.699243171,6141333.50879966,32845.0
FARMASHOP 45,Av. Del Parque 77,589471.471636948,6141119.32449584,3415.0
FARMASHOP 46,Presidente Berro 530,509557.854979048,6291213.66690431,14244.0
FARMASHOP 47,Av. Italia 3428,578639.896603365,6139056.90087388,40946.0
FARMASHOP 48,Estanislao Lopez 4856 Local 002,581914.866784832,6138969.93959962,28435.0
FARMASHOP 49,Av. de las Américas 6000,588551.086078901,6140966.48537906,6862.0
FARMASHOP 5,Av. Agraciada 3665,572215.006106139,6141572.05397722,19150.0
FARMASHOP 50,Bvar. España 2167,575906.024577611,6136766.08344876,61113.0
FARMASHOP 51,Orinoco 4993,582448.516793402,6138110.54585846,15673.0
FARMASHOP 52,20 de Setiembre 1525,576463.613566305,6137614.57680854,56255.0
FARMASHOP 53,"Av. Italia 4280, Plaza Italia Shopping",580594.889985188,6139059.96964978,37890.0
FARMASHOP 54,Av. Giannattasio Km. 22800,594193.425544871,6145453.11703627,10544.0
FARMASHOP 55,Av. 18 de Julio 1951,575491.688557828,6137638.57094652,63989.0
FARMASHOP 56,Fco. Joaquin Muñoz 2951,577652.339659529,6136964.22660772,66999.0
FARMASHOP 57,Av. Gral Rivera 3500,578692.175548314,6137552.46384451,42028.0
FARMASHOP 58,Av. Italia 3813,579500.888300381,6139195.12752219,36571.0
FARMASHOP 59,Av. Italia 3949,579831.706207068,6139201.96235542,32522.0
FARMASHOP 6,Av. Italia 6958,586137.5437324,6140103.04210384,11938.0
FARMASHOP 60,Av. Brasil 2500,576736.241014982,6136927.89639665,64059.0
FARMASHOP 61,Av. Agraciada 4104,571523.95992296,6142403.2120388,25346.0
FARMASHOP 62,Bvar. Artigas 1481,576332.958765172,6137573.62169831,56944.0
FARMASHOP 63,Gral. Jose G. Artigas 561,526245.792834724,6200176.50930545,17917.0
FARMASHOP 64,SARANDI 502,572649.817798565,6136919.31181715,22551.0
FARMASHOP 65,Av. Cebeiro 581,690104.756991873,6147643.23544604,15149.0
FARMASHOP 67,18 de Julio 1011,690448.385258857,6147847.91154221,17949.0
FARMASHOP 68,Av. Italia 2863,577429.671172551,6138786.69132463,34406.0
FARMASHOP 69,Av. Luis Batlle Berres 6149,567408.998206337,6144532.06189477,9816.0
FARMASHOP 7,Av. Roosevelt y P. 10,687497.826609249,6133042.53332226,3517.0
FARMASHOP 70,Uruguayana 3501,572257.985244578,6141103.85082574,19502.0
FARMASHOP 71,Ruta 10 Av. Eduardo V Haedo entre Las Brisas y Los Romances. Loc 209,694328.324091199,6135027.13697536,2132.0
FARMASHOP 72,Cno. Ariel 4931,571550.359647794,6145216.73110195,17335.0
FARMASHOP 73,Av. Gral Jose Maria Pez 1447,584044.242258062,6138405.15050694,12552.0
FARMASHOP 74,Av. Giannattasio Km. 21800,593183.551688758,6144806.79666565,10056.0
FARMASHOP 75,Av. Juan Gorlero 993,688104.588600267,6129575.85115591,2072.0
FARMASHOP 76,Av. Juan Gorlero 780,687780.637782694,6129237.96051553,1875.0
FARMASHOP 77,Av. A. Arocena 1980 bis,585819.371534368,6139711.55902387,12010.0
FARMASHOP 78,Av. Dr. Juan B. Alberdi 6502,585304.751024123,6139833.98120684,11521.0
FARMASHOP 79,Aparicio Saravia 649,766382.306557454,6414965.47877618,18966.0
FARMASHOP 8,Manuel Vicente Pagola 3205,577997.26024527,6136832.36915915,60115.0
FARMASHOP 80,Oribe 898,766659.382647228,6414261.84834406,18858.0
FARMASHOP 81,Florencio Sanchez 898,766799.969434697,6415104.8920691,19375.0
FARMASHOP 82,18 de Julio 1405,398652.092487655,6423832.4011378,16792.0
FARMASHOP 83,18 de Julio 1119,397976.011453395,6423910.9375415,18104.0
FARMASHOP 84,Av. Cnel. Carlos Lecueder 250,551449.853765081,6636813.22579356,18754.0
FARMASHOP 85,Gral: Flores 450,422386.11113773,6185335.7187829,5815.0
FARMASHOP 86,18 de Julio 1680,440754.008483914,6381437.67622503,9932.0
FARMASHOP 87,18 de Julio 1953,441384.498634556,6381909.28295918,9520.0
FARMASHOP 88,Av. Camacho esq. Av. Roosevelt,686207.982007365,6133950.15333728,6559.0
FARMASHOP 89,Av. Carlos Maria Ramirez 802,569909.98490768,6141654.55789942,27047.0
FARMASHOP 9,Av. Joaquin Suarez 3458,573558.385435445,6141700.40295437,24742.0
FARMASHOP 90,"Av. Luis Alberto de HErrera 3365, Nuevo Centro Shopping",575925.225368927,6141139.78743975,31707.0
FARMASHOP 91,Jose Enrique Rodo 550,403734.188747354,6320389.65223301,20385.0
FARMASHOP 92,Gral. Jose Artigas 289,404111.522349958,6320622.51483262,16923.0
FARMASHOP 93,Av. Dr. Enrique Pouey 607,571084.768109699,6156906.93066127,20160.0
FARMASHOP 94,Calle 11 Esq. Ciudad de Montevideo,613332.962482656,6151338.04972509,3246.0
FARMASHOP 95,Brig. Gral. Manuel Oribe 751,544356.53336132,6306437.41077164,15363.0
FARMASHOP 96,Uruguay 697,408074.521334349,6527081.0248125,16419.0
FARMASHOP 97,Sarandi 509,639593.637125445,6580636.85814429,15465.0
FARMASHOP 98,Jose Batlle y Ordoñez 181,570959.763871699,6152974.39038269,15001.0
FARMASHOP 99,Juan D. Jackson 1200,575545.636796157,6136900.11062778,60899.0
FARMASUR,Piovene 1031,595208.975976929,6157671.36773375,15572.0
FARMAUY,Maldonado esq.Yaro,575278.006287263,6136802.57979899,59143.0
FELIX,Cnel. Lorenzo Latorre 1288,422579.395372683,6187646.27246429,6990.0
FEMME,19 de Abril 282,381422.564083602,6237151.88813361,10964.0
FERNANDEZ GENOLET ,F.D.Roosevelt 706 e/ Colón,404036.164662792,6320557.5759581,18448.0
FERRER,Acosta 1229,789408.74519183,6211317.18508818,7202.0
FERROCARRIL,Cerrito 1305 e/ P.Larrañaga,398714.612395388,6424557.17952499,18433.0
FLEMING I,Virrey Arredondo 980,839698.246764181,6388266.4945344,6095.0
FLORENCIO SANCHEZ,Colonia y 25 de Agosto,465535.035242878,6251651.50975016,6106.0
FONT,"Avenida Williman y Parada 1, Edificio Vanguardia",688097.957090584,6130007.90261097,2274.0
FUTURA,Gral. Sanabria 936,657623.054181447,6140309.3815945,4335.0
GALET,Ruta 6 Km 23.100,582952.746718654,6155823.09025142,7587.0
GARAT,19 de Abril 1350,789478.217040062,6211366.50022025,7352.0
GARCEN,18 de Julio y Oribe ,440197.381381528,6381040.86257599,8336.0
GOMEZ,Av. Eduardo Fabini 775,640605.884020579,6170228.17637516,2672.0
GORTARI,Domingo Pérez 501 e/ T.y Tres,661992.484618251,6194658.72777313,16306.0
GUADALUPE,J. B. y Ordoñez 339 e/ C. Mayo G.,570701.292563374,6152972.68402955,15464.0
HEINZEN,18 de Julio 878,397649.896111539,6423953.37035931,18047.0
HELVETICA,Luis A. de Herrera 1101 e/ Artigas,478493.130353242,6205764.21359341,7025.0
HIARDIE,Pablo Rios 149,597357.446900108,6489503.25626086,12668.0
HUMANITARIA,25 de Agosto 1192 loc.3,758895.904525599,6270423.70483692,6008.0
IDAMAR,Varela s/n e/ Carlos Ma. Fosalba,663035.469784968,6195575.66600687,12047.0
ILEANA II,19 de Abril 1302 e/ P. Larrañaga,398117.398293506,6424634.92916422,16375.0
INGLESA II,Leandro Gómez 1013,397759.407917204,6423829.02020552,18537.0
IPORA,Cont. 25 de Agosto y Artigas,686003.163952607,6135109.65990694,15396.0
IRISARRI,Av. Artigas s/n,705243.958178697,6231015.85169423,1717.0
JAQUE MATE,Rúben Artigas s/n,692019.600817493,6355318.54825915,1523.0
JAUREGUIBERRY,Calle 10 (Av. Artigas) esq. Calle 3 (Apereá),646510.826414388,6149585.74735359,289.0
JAZMIN,Luis A. de Herrera s/n,745689.857125942,6180278.49750609,7311.0
JUAN ANGEL,Roosevelt 59,556234.659664183,6187257.10039998,13076.0
KIYU,Luz Marina s/n,523820.211594314,6160398.74663737,392.0
LA 16,Catalogne 323,596333.153779146,6490102.59795978,16904.0
LA CABINA,Av. Los Laureles s/n,652579.978579729,6146413.95564499,327.0
LA FAMILIA,Podestá 715,728988.140472683,6295426.9044762,4591.0
LA FLORESTA,Treinta y Tres y Argentina,621069.405444479,6152743.62871355,1180.0
LA MUTUALISTA,Rincón 1102,377343.732510461,6335071.19932305,6021.0
LA PASTORA,Av. Francia y Ansina,688434.133758467,6130169.07015236,2663.0
LA PEDRERA,Pitanga c/ Avda. Principal,763455.1405184,6168531.66180345,320.0
LA ROTONDA,Julio César González Moreno 203,422725.340058933,6187132.04022462,7598.0
LA RUTA,Villa Ansina,645372.731155941,6471947.47591072,2957.0
LAS CAÑAS,18 de Julio 1643,378220.618552297,6334444.24966354,14941.0
LAS DELICIAS,Av. España P. 27 A (límite Maldonado),685600.909198655,6134558.49293628,8124.0
LIBERFARMA,Rivas Costas 1071,534727.205693352,6167113.80922383,8946.0
LICANDRO,César Ortiz y Ayala 151 e/ Dr.Ferreira,596083.982827817,6490747.69054696,18923.0
LLUBERAS,Gral. Artigas 1896,443679.306504491,6208250.02484131,6642.0
LLUBERAS GUICHON,18 de Julio 325,481039.76978079,6419845.65943505,4461.0
LOMBARDI,Gral. Artigas 352 e/ Lavalleja ,544036.58830983,6306914.23502981,16336.0
LONG,18 de Julio 1886,441141.879820614,6381720.40469871,10986.0
LOS ANGELES,Artigas y Misiones,657163.232707655,6141445.0261562,2059.0
LUCHILD,18 de Julio 712,617740.138719729,6548455.56052609,5549.0
LUDOMAR (EX HOLINA),Av. Centenario s/n,674429.478619048,6335670.79748542,2968.0
LUNA,Garibaldi 21,587416.041535294,6142773.80079965,9267.0
LUNA,Garibaldi 21,587500.842131097,6142671.8551816,9330.0
LUSSICH,Cno. Lussich y Carolina Saboya,685822.868205693,6136158.22943384,17790.0
LUZ,Calle 7 esq. 13,688680.955240482,6136388.2797075,19393.0
MACHADO,Rambla de los Argentinos 1192,657528.22149852,6140376.79073287,4025.0
MAFELUGUS ,Larrañaga 1251,759038.858175465,6270675.49287585,5893.0
MALDONADO,Sta. Teresa y Ventura Alegre,686992.156780699,6135408.75956105,22424.0
MALLARINI,25 de Agosto 1111 e/ Luis Dreyer,478638.333697799,6206079.06494658,7477.0
MARIMAR,Interbalnearia Km. 39.200,606919.426184589,6151416.24491088,6036.0
MARINE,César Rodríguez Bonavita,495724.644338271,6198276.47359415,2618.0
MARITAN,Margarita Muniz 801,706009.709864961,6212953.12144721,2525.0
MARSO,Dr. Legniani 452,556061.557325075,6187360.86372689,13771.0
MARTIN,Feliciano Viera s/n,625872.438559505,6182776.27090452,2591.0
MAYRA,Garzón y Treinta y Tres,550982.976238003,6636432.31872116,17714.0
MEDICCI II,Av. España 1549,398931.888928115,6423797.05964203,16866.0
MIGUELETE,25 de Agosto 1111 e/ Luis Dreyer,440210.085358177,6236846.68472668,1230.0
MODERNEL,18 de Julio y Fco.Fondar,509516.724633985,6290985.11526272,13239.0
MONTAÑO,Lavalleja 402 e/ Florencio Sánchez,404813.020963715,6320508.05917534,16484.0
NANITOS,25 de Agosto 381,481135.470397002,6419750.92904748,4587.0
NARBONDO,Av. Brasil 895,638975.735799453,6580467.48926537,19395.0
NATIVA,Ruta 5 Km. 74.500,572196.508825846,6206479.92215794,973.0
NIEVE,Cno de los Gauchos y Oribe,687865.4231349,6135801.79061279,25600.0
NUEVA,Lavalleja 2000,443609.32242822,6207860.13893431,5873.0
NUEVA - CANELONES,Treinta y Tres 549 esq Rodó,565959.709068441,6179422.28673324,15961.0
NUEVA - TACUAREMBO,18 de Julio 275 e/ 25 de Agosto,596485.531036644,6490784.42474707,17668.0
NUEVA FARMACIA CARDAL,Av. Artigas s/n e/ Uruguay,555887.446299927,6205451.58295596,1337.0
NUEVA REPUBLICA,Av. Solari 1702,407773.290556748,6525148.71929851,18186.0
NUEVA TROCHE,Av. Dr. Armand Ugón 1358,475613.193628489,6199953.84488682,2687.0
OLALDE II,Montecaseros e/ Colón,398250.048147466,6423318.44368135,16757.0
OLAZA,Felix de Lizarza 749,662403.997854773,6150392.35206008,5809.0
OLIMAR I,Pablo Zufriategui 449,743914.056589382,6319961.4694623,15871.0
OMBUES,Zorrilla de San Martín 838,424920.372585102,6244110.47812392,2982.0
ORIENTAL,Domingo Pérez 479,661948.785318028,6194610.32663198,15802.0
OSTA BATLLE,Batlle y Ordoñez 865,509710.890610755,6290873.82413592,11623.0
OSTRA CENTRO,Francisco Fondar 691,509527.719884132,6291223.00021513,14431.0
PACCINI CENTRO,Pedro Rosa Guiffini e/ J.B.y Ordoñez,570866.489589734,6152973.91370613,15226.0
PALMIRENSE,Gral. Artigas 970,369589.045208376,6251139.36003492,6958.0
PARANT,Los Aromos esquina Rincon del Rey,476483.8563121,6189639.45448176,467.0
PASO DE LA ARENA,Av. Luis Batlle Berres 6605,566466.752155426,6144880.37632238,7006.0
PASTEUR - SARANDI GRANDE,Av. Artigas 867,562204.009230322,6268187.76343797,6130.0
PIGALE CIELMAR,Rincón 700 esq. Juncal,572964.349587122,6137145.87848032,28108.0
PIGALE DOMAR,Manuel V. Pagola 3295 esq. Chucarro,578104.66676147,6136702.29238242,55726.0
PIGALLE - DE LA COSTA,Calcagno M.40 S.8,591456.283441137,6143117.62654956,9689.0
PIGALLE 1,Félix Buxareo 1158 esq. Echevarriarza,578263.387102182,6136812.96206268,49413.0
PIGALLE 2,Av. Brasil 2570 esq. Gral. Brito del Pino,576881.526485327,6136868.47744137,67107.0
PIGALLE 3,Juan Benito Blanco 994 esq. José Martí,577765.65227957,6136202.17305917,60578.0
PIGALLE 4,21 de setiembre 2948 esq. Tomás Diago,577322.58282803,6135541.15048417,47383.0
PIGALLE 8 DE OCTUBRE,Av. 8 de Octubre 2547 esq. Presidente Berro,576518.942739477,6138622.0408676,39871.0
PIGALLE ALVAREZ,Av. Garibaldi 2567 esq. Monte Caseros,576448.379929577,6139237.02605291,42256.0
PIGALLE CANADA,Av. Bolivia 1429 esq. San Nicolás,585281.974153456,6138416.04186811,9584.0
PIGALLE CORDON,Av. 18 de julio 2051 esq. Martín C. Martínez,575748.104730258,6137755.25758888,59626.0
PIGALLE HERMES,Bvar. España 2502 esq. Obligado,576714.666611008,6136377.66192303,64858.0
PIGALLE LYON,Av. 18 de julio 2102 esq. Joaquín Requena,575865.183002765,6137780.15175216,58141.0
PIGALLE MARAZUL,Av. 18 de julio 2151 esq. Juan Paullier,575948.923192249,6137851.97215407,55043.0
PIGALLE MASSONE,Gabriel Pereira 3148 esq. 26 de Marzo,577800.299179063,6136710.28171031,63974.0
PIGALLE MAYO,Andes 1397 esq. Colonia,573238.925015295,6137141.77996749,34282.0
PIGALLE PALERMO,Dr. Carlos M. Morales 946 esq. Av. Gonzalo Ramírez,574607.424708324,6136332.30084809,39549.0
PIGALLE PONCE,Av. Gral. Rivera 2475 esq. Av. Luis P. Ponce,576578.254948685,6137433.49198368,59408.0
PIGALLE PUNTA DEL ESTE,Av. Juan Gorlero y Calle 19,687503.923465839,6128951.10911982,1683.0
PIGALLE TRES CRUCES,E. Victor Haedo 2356 esq. Dr. Mario Cassinoni,576219.736494227,6138225.26794602,46351.0
PIRUJAS,Batlle y Ordoñez 769,565897.970167658,6179875.37595977,14008.0
PLAZA,19 de Abril 205,458181.434862306,6633499.97104612,2688.0
POLLINI,Pte. Berreta 400 e/ Lavalleja,551318.850977541,6636525.38234327,18687.0
POPULAR,25 de Mayo 267,596427.821375211,6490865.39741499,17905.0
POPULAR,Fernández Crespo 1991,574769.987961314,6138187.10046877,49781.0
POPULAR,Garzón 300 e/ Rivera,551302.979193707,6636817.7904651,19605.0
POPULAR - TALA,18 de Julio e I. De León,613909.555088021,6198898.89295832,5133.0
PORTEZUELO,Ruta Interbalnearia Km. 117.500,677548.518759793,6138783.32649138,296.0
PRINCIPAL,25 de Agosto 1105 bis,534744.568835558,6167245.3248316,9415.0
PUERTO SAUCE,Av. Artigas 487,459409.693260809,6189827.89573736,7956.0
PUNTA FARMA,María Espínola 1614,583679.834341964,6138951.40791344,16575.0
RAFAEL,Artigas 452 e/ Ansina,638371.367347446,6581184.16080307,21219.0
RAPETTI,San José 649,518450.540746344,6179592.07831691,2110.0
REX,Av. Rivera 3648,579064.136278085,6137703.4169259,35890.0
RIAL,Av. Centenario s/n,627272.901164026,6295877.04912051,865.0
RINIHUE,Ituzaingó 226 e/ 18 de Julio,596638.517321312,6490907.74476568,16535.0
RIO URUGUAY,18 de Julio 1308,377723.203655642,6334867.16658908,9448.0
RISSO,Calle 7 esquina 8,446994.651277125,6279322.22363741,858.0
ROPIEL,Oribe 797,627677.869365489,6310296.4629532,4810.0
RUBENS,José Salvo 310,459597.16161063,6189539.08575626,8229.0
RUMBO AL 3000,Dr. Román Bergalli 445,687225.357361904,6135597.37738485,25471.0
RUTA 26,Ruta 26 Km. 348,687683.019773998,6437894.70243699,1926.0
SAGA,Manuel Oribe 476,551371.377109083,6636266.21716627,16814.0
SAN BAUTISTA,Treinta y Tres Orientales s/n,595370.841273673,6188511.95056568,2602.0
SAN GIOVANNI,Tuyutí M.522 S.18,598094.233711218,6146869.8305781,6100.0
SAN JAVIER (EX SABELIN),Basilio Lubker s/n,393533.88686981,6385206.28020536,2020.0
SAN MATEO,Dr. Fonseca 1327,758801.95201159,6270252.17878229,5847.0
SAN PABLO,Av. San Martin 2443,574342.44433984,6139819.5518271,37276.0
SAN PEDRO,Herrera 874,544215.979010432,6306764.15039946,16301.0
SAN PIO,José Batlle y Ordoñez esq. 25 de Agosto,468569.071929827,6601230.93822836,2493.0
SAN RAFAEL,Brighton y Nordeney (La Barra),690076.221213647,6131749.88110421,760.0
SAN RAMON,Av. José B. y Ordoñez 1215,596009.939152258,6205691.09376548,4710.0
SAN ROQUE,Bvard. Bicentenario 318,572943.865891283,6157120.90858114,16541.0
SAN ROQUE,Sarandí 555,686192.26057451,6134553.31261938,11686.0
SAN ROQUE  38,Manuel Oribe 817,544412.233272504,6306536.47061671,15509.0
SAN ROQUE - PRACTIFARMA 48,Villanueva Saravia 777,766644.962212003,6415698.90219995,17371.0
SAN ROQUE 01 - CORDON,18 de julio 1551,574693.242300449,6137275.12519613,65052.0
SAN ROQUE 03 - COSTA URBANA,Av. Giannattasio Km. 21,592001.391103697,6144153.62973366,9914.0
SAN ROQUE 04 - YI,18 de Julio 1252 esq. Yi,574092.02110226,6137097.49153048,58538.0
SAN ROQUE 05 - MAM,Jose .L. Terra  2200   local   37 y 38,574631.801398912,6139192.48072434,38639.0
SAN ROQUE 06 - MONTEVIDEO SHOPPING,Luis A. de Herrera 1290 - Loc.152,578847.393909513,6137369.99498943,35381.0
SAN ROQUE 08 SHOPPING,Bvard. Artigas 770 Shopping loc. 001,399239.561025675,6423422.29007609,16745.0
SAN ROQUE 09 - CONVENCION,18 de Julio 900 esq. Convención,573350.523470392,6137041.98065641,36781.0
SAN ROQUE 11 - PORTONES SHOPPING,Av. Italia 5775 - Loc. 201/206,583901.21424677,6139734.90626342,12264.0
SAN ROQUE 12 - TRES CRUCES SHOPPING,"Bvar. Artigas 1825, local 48",576213.946182909,6138424.7726032,44877.0
SAN ROQUE 13 - PASO MOLINO,Agraciada 4214,571307.744360931,6142622.51015195,26163.0
SAN ROQUE 14 - PUNTA CARRETAS SHOPPING,Ellauri 350 - Loc. 109 y 145,576817.899154345,6135084.95663984,30211.0
SAN ROQUE 15 - PUNTA SHOPPING,Av. Roosevelt y Los Alpes,688686.092053392,6131557.74158202,2367.0
SAN ROQUE 16 - MALVIN,Mississipi 1647 esq. Rivera,582572.169868004,6138637.03670421,21198.0
SAN ROQUE 17 - CERRO,Avenida Carlos María Ramírez 1490,568829.814896592,6140803.35571853,18046.0
SAN ROQUE 18 - GEANT,Av. La Playa y Giannattasio,589211.170534148,6141426.96939296,4852.0
SAN ROQUE 19,B. y Ordoñez 2265 loc.117 (Shopping),410193.953202232,6527405.80527647,16818.0
SAN ROQUE 21 - UNIVERSIDAD,Avenida 18 de Julio 1799 esq. Tristán Narvaja,575143.942165137,6137484.25816899,65306.0
SAN ROQUE 22 - ELLAURI,José Ellauri 512 esq. Montero,576973.245939267,6135371.76807353,42237.0
SAN ROQUE 23 - MERCEDES SHOPPING,Don Bosco casi Artigas (Shopping),404254.855582493,6319697.40511696,22535.0
SAN ROQUE 24 - AEROPUERTO DE CARRASCO,Aeropuerto de Carrasco - Ruta 101 km 19.950,589955.070500297,6144615.760153,1176.0
SAN ROQUE 28 - BENITO BLANCO,Gabriel Pereira 3298 esq. Benito Blanco,577990.868329413,6136469.56263094,57219.0
SAN ROQUE 29 - COLONIA SHOPPING,Shopping Colonia Del Sacramento,423322.257079047,6185779.95838592,9063.0
SAN ROQUE 30 - CIUDAD VIEJA,Sarandí 699,572986.714633348,6137045.20522309,28749.0
SAN ROQUE 31 - UNION,8 de Octubre 3640,578316.725800553,6140300.45348413,37975.0
SAN ROQUE 32,Colón 278 e/ Careaga y Roosevelt,403992.757431376,6320607.90922268,17233.0
SAN ROQUE 33,Uruguay 839,408274.280306223,6527050.64848543,17728.0
SAN ROQUE 34,18 de Julio 1707,378339.609831284,6334337.48699417,15152.0
SAN ROQUE 35,19 de Abril e/ L.Gómez y 18 de Julio,397960.231519035,6423813.32385697,18343.0
SAN ROQUE 36,Francisco Fondar 649,509530.198584435,6291311.49498761,14390.0
SAN ROQUE 37,Av. Artigas 389,422578.020891519,6185753.50699838,8100.0
SAN ROQUE 40,Sarandí 665,639424.036492647,6580364.27176396,18287.0
SAN ROQUE 42 - AROCENA,Arocena 1681 esq. Rivera,586020.405239604,6139129.48283479,9240.0
SAN ROQUE 44,Berna 1295,478506.375700278,6206305.95265311,7138.0
SAN ROQUE 46,Dr. Fco. Soca 220,408394.949775534,6527303.29002987,19481.0
SAN ROQUE 47,Grito de Asencio 1499,408340.547568757,6528649.69093352,17553.0
SAN ROQUE 49,Justino Muniz 768,766334.049457222,6415212.7230486,17215.0
SAN ROQUE 50,25 de Mayo 208,596598.380578206,6491017.69148009,15968.0
SAN ROQUE 51 - CONSTITUYENTE,Constituyente 1789 esq. Gaboto,575110.118883676,6137019.6291708,65662.0
SAN ROQUE 52 - SALTERAIN,Rivera 2102 y Salterain,575822.498893475,6137470.75735355,62126.0
SAN ROQUE 53,25 de mayo 321,596285.967503523,6490719.98656236,18919.0
SAN ROQUE 54,Sarandí 555 e/ Antonio Ledesma,686604.335782347,6134647.49939163,14302.0
SAN ROQUE 56,"Luis Alberto de Herrera 950, Minas - Lavalleja.",662038.653813518,6195551.70537503,14330.0
SAN ROQUE 58 - PAULLIER,Canelones 2198 esq. Paullier,576038.027032333,6136943.13173345,65642.0
SAN ROQUE 61 - PARQUE RODO,Av. Julio Herrera y Reissig 736,576214.668973187,6136034.98489053,43562.0
SAN ROQUE 63 - COMERCIO,Av Italia 3830 esq. Solano López,579593.814570356,6139134.34043022,36818.0
SAN ROQUE 90 MENAFRA,Calle 28 esq. 20,687828.427222062,6129448.2985277,2023.0
SAN ROQUE BOSCA,Wilson Ferreira 1047 ,595141.081333112,6157574.14779571,15736.0
SAN ROQUE CENTRO,18 de Julio 1078 esq. Paraguay,573732.332033945,6137069.10049097,48187.0
SAN SEBASTIAN,Montevideo 3547,440403.584703188,6381852.35162507,9357.0
SANDU,25 de Mayo 250,596493.520991753,6490905.26220594,17348.0
SANFER I,Juan A. Lavalleja 1265,743450.67729332,6320594.60134142,12000.0
SANTA CECILIA CENTRO,Av. Artigas 642,441820.770323933,6652068.41729588,6908.0
SANTA CECILIA ESTE,Av. Artigas 1609,442798.990850498,6652379.52256233,10419.0
SANTA CRUZ,25 de Mayo 457 bis,595907.983358364,6490313.48544543,16864.0
SANTA HIGINIA,Av.José G. Artigas 730,768115.439610604,6470635.8831125,1132.0
SANTA ROSA,Av. Tomás Berreta ,588213.367930065,6182090.63551211,3963.0
SANTA VERONA,Cerro Largo s/n esquina Avenida Brasil,709450.07418056,6364679.44045279,1173.0
SAUCE,Carmelo Renée González 2132,585651.623598285,6165316.45415065,5899.0
SENAQUE ,Ciganda y Oribe (Plaza Independencia),526865.909299995,6200083.79196381,17905.0
SERRALEX,Dr. Davison,644960.698222631,6506220.03104501,3892.0
SERRANA,Juan Farina 445,661522.460029626,6194862.0535021,14454.0
SILLEDA,General Flores 3401,575770.256974869,6141560.39304398,30192.0
SILVA,Lavalleja 119 esquina 18 de julio,744933.083649434,6181171.36998987,12706.0
SINERGIA,Joaquin Suarez y Barboza,465894.452249878,6252198.21583393,7276.0
SOL Y LUA,Paloma s/n entre Aries y Solari,760374.988973628,6161149.42780534,1705.0
SOLER,18 de Julio 851,690601.921727365,6147947.81003843,18021.0
SORIA,Bvar. Cardona 1379 e/ Barboza,465885.560906438,6251842.88168869,7105.0
SU FARMACIA,Calle 11 y 26 Padrón 126 M.180,613014.611873796,6151549.30632085,3289.0
SUDRIERS,Luis A. de Herrera s/n,600939.414895255,6160295.19892135,4896.0
SUEÑOS,Calle 1 y 10 - Urb. Biarritz,687885.7307375,6136836.21189385,26214.0
SUIZA,Leandro Gómez 989,397720.470407428,6423834.00584568,18368.0
TALITA,Presidente Viera 1299,639352.58324476,6579627.03288593,14661.0
TAMITA,Florida y Ramón Guerra ,686704.475576683,6135228.95034621,19958.0
TAPIE,25 de mayo 315,572246.891751352,6136994.39990376,12861.0
TEJERA HNAS.,Manuel Francisco Artigas s/n,624285.280411323,6225898.79414966,2733.0
TERMAL GUAVIYU,"Termas de Guaviyú, ruta 3, km431",416134.189311658,6476745.64828226,296.0
TERMINAL,Artigas 779 e/ Ansina,526135.134029171,6200629.00580128,15395.0
TORRE 18,Giannattasio Km. 18,590394.354506152,6142414.61465893,5663.0
TRANQUERAS,18 de Julio 597,617480.151116357,6548693.32685031,5223.0
TUNDISI COUNTRY,Camino de los Horneros Km. 3,593616.716782361,6149591.07653564,1041.0
URUGUAY - ROCHA,18 de Julio 129,744774.350279376,6181342.84821296,12947.0
VALDENSE,Av. Armand Ugón 1013,476126.237476779,6200456.62633056,3290.0
VALENTINA,Puig 1848,387265.281720997,6288921.7151248,11931.0
VANT´HOFF,Av. Uruguay 1799,409492.371346356,6526916.88219515,19912.0
VERGARA,Marcelo Barreto 1155,786262.86620729,6351429.39242746,3140.0
VERO,Ruta 8 Km 28.000,593080.45302149,6155196.32332594,6027.0
VICHADERO,25 de Agosto s/n,718470.514925031,6481595.84681688,3922.0
VIDAL,Gral. Artigas 368,491674.867770302,6242344.98771656,1086.0
YALALE VI,Giannattasio Km 21.000 M.121 S.18,592471.588289447,6144354.01192427,10273.0
YATAY,Sarandí 414,627292.92196543,6309679.43958228,6070.0
ZAFIRO,Bvar Rodó e/ Zorrilla de San Martín,425691.559931108,6292152.9303056,2322.0
ZAPICAN,Lavalleja 415,729171.901084823,6295350.00253392,4159.0
